EMu Catalog IRN,CatPrefix,CatNumber,CatSuffix,BioParticipantString,BioDateVisitedFrom,BioDateVisitedTo,ClaOrder,ClaFamily,ClaGenus,ClaSpecies,ClaSubspecies,EMU Localities IRN,AquBottomDepthFromMet,AquBottomDepthToMet,AquDepthFromMet,AquDepthToMet,AquDistanceFromShoreMet,AquDistanceFromShoreToMet,DraDrainage,DraDrainageSeaGulf,DraPrimaryTributary,DraQuaternaryTributary,DraRiverBasin,DraSecondaryTributary,DraTertiaryTributary,LatDeriveCentroid_tab,LatPreferred_tab,LocArchipelago,LocBaySound,LocContinent,LocContinentalShelfRegion,LocCountry,LocDistrictCountyShire,LocIslandGrouping,LocIslandName,LocNearestNamedPlace,LocNoFurtherLocalityData,LocOcean,LocPreciseLocation,LocProvinceStateTerritory,LocSeaGulf,LocSiteName_tab,LocTownship,TerElevationFromMet,TerElevationToMet,TerVerbatimElevation,LatPreferredCentroidLatDec,LatPreferredCentroidLongDec
3574194,R,12578,,,,,Squamata,Hydrophiidae,Disteira,stokesii,,3056400,,,,,,,,,,,,,,,,,,Asia,,Singapore,,,,,,,,,,,,,,,,
3470817,R,90432,,Jerry A. Anderson,1963-01-18,1963-01-18,Squamata,Hydrophiidae,Hydrophis,gracilis,,3046695,,,,,,,,,,,,,,,,,,Asia,,Pakistan,,,,,,,"Kalmat Bay, nr Ormara",Las Bela,,,,,,,,
3629422,R,87491,,Hasham Jogi,1961-07-,1961-07-,Squamata,Hydrophiidae,Praescutata,viperina,,3064592,,,,,,,,,,,,,,,,,,Asia,,Pakistan,,,,,,,"Kuba Bunder, nr mouth of Indus River",Tatta,,,,,,,,
3420178,R,66603,,E. P. Brunese Jr.,,,Squamata,Hydrophiidae,Praescutata,viperina,,3038948,,,,,,,,,,,,,,,,,,Asia,,Saudi Arabia,,,,,,,Persian Gulf,,,,,,,,,
3603103,R,81855,,,1958-12-31,1958-12-31,Squamata,Hydrophiidae,Disteira,schistosa,,3060195,,,,,,,,,,,,,,,,,,Asia,,Pakistan,,,,,,,Coastal waters nr Karachi,Islamabad,,,,,,,,
3578139,R,14171,,Malcolm A. Smith M.D.,,,Squamata,Hydrophiidae,Hydrophis,caerulescens,,3056788,,,,,,,,,,,,,,,,,,Asia,,,,,,,,,,,Gulf of Siam,,,,,,,
3420186,R,66605,,E. P. Brunese Jr.,,,Squamata,Hydrophiidae,Pelamis,platurus,,3038948,,,,,,,,,,,,,,,,,,Asia,,Saudi Arabia,,,,,,,Persian Gulf,,,,,,,,,
3356875,R,119855,,,,,Squamata,Hydrophiidae,Laticauda,colubrina,,3029063,,,,,,,,,,,,,,,,,,South Pacific,,Fiji Islands,,,,,,Pacific Ocean,presumably from vic Suva,,,,,,,,,
3603809,R,81880,,,,,Squamata,Hydrophiidae,Laticauda,colubrina,,3027248,,,,,,,,,,,,,,,,,,No Data,,No Data,,,,,,,,,,,,,,,,
3566457,R,29006,,Rollo H. Beck,1927-08-21,1927-08-21,Squamata,Hydrophiidae,Laticauda,laticaudata,,3056053,,,,,,,,,,,,,,,,,,South Pacific,,Fiji Islands,,,Polynesia,,,,Thikombia,,,,,,,,,
3566447,R,29001,,Rollo H. Beck,,,Squamata,Hydrophiidae,Laticauda,colubrina,,3056050,,,,,,,,,,,,,,,,,,South Pacific,,Fiji Islands,,,Polynesia,,,,Vanua Masi,,,,,,,,,
3566455,R,29005,,Rollo H. Beck,,,Squamata,Hydrophiidae,Laticauda,colubrina,,3056052,,,,,,,,,,,,,,,,,,South Pacific,,Fiji Islands,,,Polynesia,,,,Komo,,,,,,,,,
3566451,R,29003,,Rollo H. Beck,,,Squamata,Hydrophiidae,Laticauda,colubrina,,3056049,,,,,,,,,,,,,,,,,,South Pacific,,Fiji Islands,,,Polynesia,,,,Aiva,,,,,,,,,
3566441,R,28998,,Rollo H. Beck,,,Squamata,Hydrophiidae,Laticauda,colubrina,,3056049,,,,,,,,,,,,,,,,,,South Pacific,,Fiji Islands,,,Polynesia,,,,Aiva,,,,,,,,,
3578137,R,14170,,Malcolm A. Smith M.D.,,,Squamata,Hydrophiidae,Hydrophis,caerulescens,,3056788,,,,,,,,,,,,,,,,,,Asia,,,,,,,,,,,Gulf of Siam,,,,,,,
3566453,R,29004,,Rollo H. Beck,,,Squamata,Hydrophiidae,Laticauda,colubrina,,3056049,,,,,,,,,,,,,,,,,,South Pacific,,Fiji Islands,,,Polynesia,,,,Aiva,,,,,,,,,
3540829,R,38108,,,,,Squamata,Hydrophiidae,Laticauda,colubrina,,3027248,,,,,,,,,,,,,,,,,,No Data,,No Data,,,,,,,,,,,,,,,,
3540831,R,38109,,,,,Squamata,Hydrophiidae,Laticauda,colubrina,,3027248,,,,,,,,,,,,,,,,,,No Data,,No Data,,,,,,,,,,,,,,,,
3540835,R,38111,,,,,Squamata,Hydrophiidae,Laticauda,colubrina,,3027248,,,,,,,,,,,,,,,,,,No Data,,No Data,,,,,,,,,,,,,,,,
3628287,R,86929,,James Carey,1961-01-25,1961-01-25,Squamata,Hydrophiidae,Hydrophis,torquatus,diadema,3064295,,,,,,,,,,,,,,,,,,Asia,,Thailand,,,,,,,Bangkok,,,,,,,,,
3515503,R,94506,,V. Atukorale,1964,1964,Squamata,Hydrophiidae,Pelamis,platurus,,3051290,,,,,,,,,,,,,,,,,,Asia,,Sri Lanka,,,,,,,Colombo,Western,,,,,,,,
5163726,R,160149,,,,,Squamata,Hydrophiidae,Laticauda,semifasciata,,5011526,,,,,,,,,,,,,,,,,,No data,,No Data,,,,,,,,,,,,,,,,
3356861,R,119848,,,,,Squamata,Hydrophiidae,Laticauda,colubrina,,3029063,,,,,,,,,,,,,,,,,,South Pacific,,Fiji Islands,,,,,,Pacific Ocean,presumably from vic Suva,,,,,,,,,
3356859,R,119847,,,,,Squamata,Hydrophiidae,Laticauda,colubrina,,3029063,,,,,,,,,,,,,,,,,,South Pacific,,Fiji Islands,,,,,,Pacific Ocean,presumably from vic Suva,,,,,,,,,
3356857,R,119846,,,,,Squamata,Hydrophiidae,Laticauda,colubrina,,3029063,,,,,,,,,,,,,,,,,,South Pacific,,Fiji Islands,,,,,,Pacific Ocean,presumably from vic Suva,,,,,,,,,
3356873,R,119854,,,,,Squamata,Hydrophiidae,Laticauda,colubrina,,3029063,,,,,,,,,,,,,,,,,,South Pacific,,Fiji Islands,,,,,,Pacific Ocean,presumably from vic Suva,,,,,,,,,
3603105,R,81856,,,1958-12-31,1958-12-31,Squamata,Hydrophiidae,Disteira,schistosa,,3060195,,,,,,,,,,,,,,,,,,Asia,,Pakistan,,,,,,,Coastal waters nr Karachi,Islamabad,,,,,,,,
3603110,R,81858,,,1958-12-31,1958-12-31,Squamata,Hydrophiidae,Disteira,schistosa,,3060195,,,,,,,,,,,,,,,,,,Asia,,Pakistan,,,,,,,Coastal waters nr Karachi,Islamabad,,,,,,,,
3603119,R,81862,,,1958-12-31,1958-12-31,Squamata,Hydrophiidae,Disteira,schistosa,,3060195,,,,,,,,,,,,,,,,,,Asia,,Pakistan,,,,,,,Coastal waters nr Karachi,Islamabad,,,,,,,,
3603121,R,81863,,,1958-12-31,1958-12-31,Squamata,Hydrophiidae,Disteira,schistosa,,3060195,,,,,,,,,,,,,,,,,,Asia,,Pakistan,,,,,,,Coastal waters nr Karachi,Islamabad,,,,,,,,
3603108,R,81857,,,1958-12-31,1958-12-31,Squamata,Hydrophiidae,Disteira,schistosa,,3060195,,,,,,,,,,,,,,,,,,Asia,,Pakistan,,,,,,,Coastal waters nr Karachi,Islamabad,,,,,,,,
3629416,R,87488,,Minton,1961-09-30,1961-09-30,Squamata,Hydrophiidae,Disteira,schistosa,,3064590,,,,,,,,,,,,,,,,,,Asia,,Pakistan,,,,,,,"Karachi Harbor, Yari Creek",,,,,,,,,
3628225,R,86899,,J. Anderson & Sherman A. Minton,1961-06-22,1961-06-22,Squamata,Hydrophiidae,Disteira,schistosa,,3064276,,,,,,,,,,,,,,,,,,Asia,,Pakistan,,,,,,,nr mouth Malir River,Karachi,,,,,,,,
3628227,R,86900,,J. Anderson & Sherman A. Minton,1961-06-22,1961-06-22,Squamata,Hydrophiidae,Disteira,schistosa,,3064276,,,,,,,,,,,,,,,,,,Asia,,Pakistan,,,,,,,nr mouth Malir River,Karachi,,,,,,,,
3628229,R,86901,,J. Anderson & Sherman A. Minton,1961-06-22,1961-06-22,Squamata,Hydrophiidae,Disteira,schistosa,,3064276,,,,,,,,,,,,,,,,,,Asia,,Pakistan,,,,,,,nr mouth Malir River,Karachi,,,,,,,,
3481916,R,91572,,Jerome Anderson,1962-12-10,1962-12-10,Squamata,Hydrophiidae,Hydrophis,cyanocinctus,,3048173,,,,,,,,,,,,,,,,,,Asia,,Pakistan,,,,,,,"Karachi Dist, off Cape Monze",,,,,,,,,
3470819,R,90433,,Jerry A. Anderson,1962-10-12,1962-10-12,Squamata,Hydrophiidae,Hydrophis,mamillaris,,3046696,,,,,,,,,,,,,,,,,,Asia,,Pakistan,,,,,,,"Korangi Cr, nr Karachi",Federal,,,,,,,,
3625495,R,85591,,"Sherman A. Minton, George Dales & O. Maschike",1960-11-27,1960-11-27,Squamata,Hydrophiidae,Pelamis,platurus,,3063845,,,,,,,,,,,,,,,,,,Asia,,Pakistan,,,,,,,"Reef nr Cape Monze, ca 12 mi SW Karachi",,,,,,,,,
3622314,R,84023,,"N. B. Chugtai, W. Fairservis & Sherman A. Minton",1959-12-19,1959-12-19,Squamata,Hydrophiidae,Disteira,schistosa,,3063018,,,,,,,,,,,,,,,,,,Asia,,Pakistan,,,,,,,"Churna Island, off Cape Monze",,,,,,,,,
3356869,R,119852,,,,,Squamata,Hydrophiidae,Laticauda,colubrina,,3029063,,,,,,,,,,,,,,,,,,South Pacific,,Fiji Islands,,,,,,Pacific Ocean,presumably from vic Suva,,,,,,,,,
3356879,R,119857,,,,,Squamata,Hydrophiidae,Laticauda,colubrina,,3029063,,,,,,,,,,,,,,,,,,South Pacific,,Fiji Islands,,,,,,Pacific Ocean,presumably from vic Suva,,,,,,,,,
3356867,R,119851,,,,,Squamata,Hydrophiidae,Laticauda,colubrina,,3029063,,,,,,,,,,,,,,,,,,South Pacific,,Fiji Islands,,,,,,Pacific Ocean,presumably from vic Suva,,,,,,,,,
3428532,R,104681,,Michael Hammill,1970-07-09,1970-07-09,Squamata,Hydrophiidae,Hydrophis,lapemoides,,3040038,,,,,,,,,,,,,,,,,,Asia,,Saudi Arabia,,,,,,,Doha Dhalum,,,,,,,,,
3437377,R,107251,,D. K. Massey,1969-03-12,1969-03-12,Squamata,Hydrophiidae,Disteira,schistosa,,3040959,,,,,,,,,,,,,,,,,,Asia,,India,,,,,,,Kerala,,,,,,,,,
3437379,R,107252,,D. K. Massey,1969-03-12,1969-03-12,Squamata,Hydrophiidae,Disteira,schistosa,,3040959,,,,,,,,,,,,,,,,,,Asia,,India,,,,,,,Kerala,,,,,,,,,
3603114,R,81860,,,1958-12-31,1958-12-31,Squamata,Hydrophiidae,Disteira,schistosa,,3060195,,,,,,,,,,,,,,,,,,Asia,,Pakistan,,,,,,,Coastal waters nr Karachi,Islamabad,,,,,,,,
3537178,R,96080,,Ranil Senanayake,1965-09-,1965-09-,Squamata,Hydrophiidae,Pelamis,platurus,,3052775,,,,,,,,,,,,,,,,,,Asia,,Sri Lanka,,,,,,,Mount Lavinia,Western Province,,,,,,sea level,,
3628237,R,86905,,Jooma,1961-07-11,1961-07-11,Squamata,Hydrophiidae,Disteira,schistosa,,3064278,,,,,,,,,,,,,,,,,,Asia,,Pakistan,,,,,,,"Korangi Creek, nr PAF-Airforce Sta",Karachi,,,,,,,,
3628239,R,86906,,Jooma,1961-07-11,1961-07-11,Squamata,Hydrophiidae,Disteira,schistosa,,3064278,,,,,,,,,,,,,,,,,,Asia,,Pakistan,,,,,,,"Korangi Creek, nr PAF-Airforce Sta",Karachi,,,,,,,,
3625390,R,85540,,John de_Silva,1960,1960,Squamata,Hydrophiidae,Pelamis,platurus,,3063813,,,,,,,,,,,,,,,,,,Asia,,Sri Lanka,,,,,,,,Colombo,,,,,,,,
3427695,R,67178,,,,,Squamata,Hydrophiidae,Hydrophis,melanocephalus,,3027248,,,,,,,,,,,,,,,,,,No Data,,No Data,,,,,,,,,,,,,,,,
3631043,R,140374,,,,,Squamata,Hydrophiidae,Laticauda,semifasciata,,3027248,,,,,,,,,,,,,,,,,,No Data,,No Data,,,,,,,,,,,,,,,,
3631047,R,140376,,,,,Squamata,Hydrophiidae,Laticauda,colubrina,,3027248,,,,,,,,,,,,,,,,,,No Data,,No Data,,,,,,,,,,,,,,,,
3631045,R,140375,,,,,Squamata,Hydrophiidae,Laticauda,semifasciata,,3027248,,,,,,,,,,,,,,,,,,No Data,,No Data,,,,,,,,,,,,,,,,
3640108,R,144706,,,,,Squamata,Hydrophiidae,,,,3027248,,,,,,,,,,,,,,,,,,No Data,,No Data,,,,,,,,,,,,,,,,
3356877,R,119856,,,,,Squamata,Hydrophiidae,Laticauda,colubrina,,3029063,,,,,,,,,,,,,,,,,,South Pacific,,Fiji Islands,,,,,,Pacific Ocean,presumably from vic Suva,,,,,,,,,
3356871,R,119853,,,,,Squamata,Hydrophiidae,Laticauda,colubrina,,3029063,,,,,,,,,,,,,,,,,,South Pacific,,Fiji Islands,,,,,,Pacific Ocean,presumably from vic Suva,,,,,,,,,
3356865,R,119850,,,,,Squamata,Hydrophiidae,Laticauda,colubrina,,3029063,,,,,,,,,,,,,,,,,,South Pacific,,Fiji Islands,,,,,,Pacific Ocean,presumably from vic Suva,,,,,,,,,
3534265,R,35202,,Clifford H. Pope,,,Squamata,Hydrophiidae,Hydrophis,melanocephalus,,3052506,,,,,,,,,,,,,,,,,,Asia,,,,,,,,,,,,,,,,,,
3578143,R,14173,,Malcolm A. Smith M.D.,,,Squamata,Hydrophiidae,Hydrophis,torquatus,diadema,3056788,,,,,,,,,,,,,,,,,,Asia,,,,,,,,,,,Gulf of Siam,,,,,,,
3356863,R,119849,,,,,Squamata,Hydrophiidae,Laticauda,colubrina,,3029063,,,,,,,,,,,,,,,,,,South Pacific,,Fiji Islands,,,,,,Pacific Ocean,presumably from vic Suva,,,,,,,,,
5163724,R,160148,,,,,Squamata,Hydrophiidae,Hydrophis,cyanocinctus,,5011526,,,,,,,,,,,,,,,,,,No data,,No Data,,,,,,,,,,,,,,,,
3586038,R,17084,,T. Kimura,,,Squamata,Hydrophiidae,Hydrophis,cyanocinctus,,3057708,,,,,,,,,,,,,,,,,,Asia,,Japan,,,,,,,"Mitsaki, Sagami",,,,,,,,,
3578147,R,14175,,Malcolm A. Smith M.D.,,,Squamata,Hydrophiidae,Hydrophis,torquatus,diadema,3056788,,,,,,,,,,,,,,,,,,Asia,,,,,,,,,,,Gulf of Siam,,,,,,,
3534267,R,35203,,,,,Squamata,Hydrophiidae,Hydrophis,melanocephalus,,3027248,,,,,,,,,,,,,,,,,,No Data,,No Data,,,,,,,,,,,,,,,,
3552404,R,23067,,,1922-07-27,1922-07-27,Squamata,Hydrophiidae,Laticauda,colubrina,,3029307,,,,,,,,,,,,,,,,,,No Data,,No Data,,,,,,,Blank entry in orig Catalog,,,,,,,,,
3552406,R,23068,,,1922-07-27,1922-07-27,Squamata,Hydrophiidae,Laticauda,colubrina,,3029307,,,,,,,,,,,,,,,,,,No Data,,No Data,,,,,,,Blank entry in orig Catalog,,,,,,,,,
3566437,R,28996,,Rollo H. Beck,,,Squamata,Hydrophiidae,Laticauda,colubrina,,3056047,,,,,,,,,,,,,,,,,,Unknown,,,,,,,,,,,,,,,,,,
3566439,R,28997,,Rollo H. Beck,,,Squamata,Hydrophiidae,Laticauda,colubrina,,3056047,,,,,,,,,,,,,,,,,,Unknown,,,,,,,,,,,,,,,,,,
3566445,R,29000,,Rollo H. Beck,,,Squamata,Hydrophiidae,Laticauda,colubrina,,3056047,,,,,,,,,,,,,,,,,,Unknown,,,,,,,,,,,,,,,,,,
3566449,R,29002,,Rollo H. Beck,,,Squamata,Hydrophiidae,Laticauda,colubrina,,3056047,,,,,,,,,,,,,,,,,,Unknown,,,,,,,,,,,,,,,,,,
3501833,R,40453,,Rollo H. Beck,1924-10-27,1924-10-27,Squamata,Hydrophiidae,Laticauda,laticaudata,,3050223,,,,,,,,,,,,,,,,,,South Pacific,,Fiji Group,,,Fiji Ids,,,,Vanua Kula,,,,,,,,,
3501826,R,40450,,Rollo H. Beck,1925-01-14,1925-01-14,Squamata,Hydrophiidae,Laticauda,colubrina,,3050222,,,,,,,,,,,,,,,,,,South Pacific,,Fiji Group,,,Fiji Ids,,,,Vomo,,,,,,,,,
3500803,R,40212,,,1925,1925,Squamata,Hydrophiidae,Laticauda,colubrina,,3050029,,,,,,,,,,,,,,,,,,South Pacific,,Fiji group,,,Fiji Group,,,,Moala,,,,,,,,,
3502223,R,40577,,Rollo H. Beck,1925-01-01,1925-01-01,Squamata,Hydrophiidae,Laticauda,colubrina,,3050257,,,,,,,,,,,,,,,,,,South Pacific,,Tongas,,,,,,,Fonuaika,,,,,,,,,
3500805,R,40213,,,1925,1925,Squamata,Hydrophiidae,Laticauda,colubrina,,3050029,,,,,,,,,,,,,,,,,,South Pacific,,Fiji group,,,Fiji Group,,,,Moala,,,,,,,,,
3501071,R,40307,,Rollo H. Beck,1925,1925,Squamata,Hydrophiidae,Laticauda,colubrina,,3050062,,,,,,,,,,,,,,,,,,South Pacific,,Tongan Group,,,Tonga Group,,,,Kelifÿia,,,,,,,,,
3420122,R,66587,,James A. Oliver,1945-09-13,1945-09-13,Squamata,Hydrophiidae,Hydrophis,ornatus,,3038939,,,,,,,,,,,,,,,,,,Asia,,[Japan],,,,,,,"Buckner Bay, Okinawa (Nakagusuku Wan)",Ryu Kyu Islands,,,,,,,,
3420124,R,66588,,James A. Oliver,1945-09-13,1945-09-13,Squamata,Hydrophiidae,Hydrophis,ornatus,,3038939,,,,,,,,,,,,,,,,,,Asia,,[Japan],,,,,,,"Buckner Bay, Okinawa (Nakagusuku Wan)",Ryu Kyu Islands,,,,,,,,
3463084,R,74485,,,1941-01-06,1941-01-06,Squamata,Hydrophiidae,Disteira,schistosa,,3045600,,,,,,,,,,,,,,,,,,Asia,,India,,,,,,,Ennur Sta,Madras,,,,,,,,
3596690,R,79918,,,1958-03-23,1958-03-23,Squamata,Hydrophiidae,Hydrophis,spiralis,spiralis,3059210,,,,,,,,,,,,,,,,,,Asia,,India?,,,,,,,,,,,,,,,,
3596694,R,79920,,,1958-03-23,1958-03-23,Squamata,Hydrophiidae,Hydrophis,spiralis,spiralis,3059210,,,,,,,,,,,,,,,,,,Asia,,India?,,,,,,,,,,,,,,,,
3420131,R,66591,,James A. Oliver,1945-09-13,1945-09-13,Squamata,Hydrophiidae,Hydrophis,ornatus,,3038939,,,,,,,,,,,,,,,,,,Asia,,[Japan],,,,,,,"Buckner Bay, Okinawa (Nakagusuku Wan)",Ryu Kyu Islands,,,,,,,,
3420120,R,66586,,James A. Oliver,1945-09-13,1945-09-13,Squamata,Hydrophiidae,Hydrophis,ornatus,,3038939,,,,,,,,,,,,,,,,,,Asia,,[Japan],,,,,,,"Buckner Bay, Okinawa (Nakagusuku Wan)",Ryu Kyu Islands,,,,,,,,
3420126,R,66589,,James A. Oliver,1945-09-13,1945-09-13,Squamata,Hydrophiidae,Hydrophis,ornatus,,3038939,,,,,,,,,,,,,,,,,,Asia,,[Japan],,,,,,,"Buckner Bay, Okinawa (Nakagusuku Wan)",Ryu Kyu Islands,,,,,,,,
3420128,R,66590,,James A. Oliver,1945-09-13,1945-09-13,Squamata,Hydrophiidae,Hydrophis,ornatus,,3038939,,,,,,,,,,,,,,,,,,Asia,,[Japan],,,,,,,"Buckner Bay, Okinawa (Nakagusuku Wan)",Ryu Kyu Islands,,,,,,,,
3596692,R,79919,,,1958-03-23,1958-03-23,Squamata,Hydrophiidae,Hydrophis,cyanocinctus,,3059210,,,,,,,,,,,,,,,,,,Asia,,India?,,,,,,,,,,,,,,,,
3420108,R,66581,,James A. Oliver,1945-09-13,1945-09-13,Squamata,Hydrophiidae,Hydrophis,ornatus,,3038939,,,,,,,,,,,,,,,,,,Asia,,[Japan],,,,,,,"Buckner Bay, Okinawa (Nakagusuku Wan)",Ryu Kyu Islands,,,,,,,,
3420110,R,66582,,James A. Oliver,1945-09-13,1945-09-13,Squamata,Hydrophiidae,Hydrophis,ornatus,,3038939,,,,,,,,,,,,,,,,,,Asia,,[Japan],,,,,,,"Buckner Bay, Okinawa (Nakagusuku Wan)",Ryu Kyu Islands,,,,,,,,
3420112,R,66583,,James A. Oliver,1945-09-13,1945-09-13,Squamata,Hydrophiidae,Hydrophis,ornatus,,3038939,,,,,,,,,,,,,,,,,,Asia,,[Japan],,,,,,,"Buckner Bay, Okinawa (Nakagusuku Wan)",Ryu Kyu Islands,,,,,,,,
3420114,R,66584,,James A. Oliver,1945-09-13,1945-09-13,Squamata,Hydrophiidae,Hydrophis,ornatus,,3038939,,,,,,,,,,,,,,,,,,Asia,,[Japan],,,,,,,"Buckner Bay, Okinawa (Nakagusuku Wan)",Ryu Kyu Islands,,,,,,,,
3420116,R,66585,,James A. Oliver,1945-09-13,1945-09-13,Squamata,Hydrophiidae,Hydrophis,ornatus,,3038939,,,,,,,,,,,,,,,,,,Asia,,[Japan],,,,,,,"Buckner Bay, Okinawa (Nakagusuku Wan)",Ryu Kyu Islands,,,,,,,,
3420182,R,66604,,E. P. Brunese Jr.,,,Squamata,Hydrophiidae,Hydrophis,sp.,,3038948,,,,,,,,,,,,,,,,,,Asia,,Saudi Arabia,,,,,,,Persian Gulf,,,,,,,,,
3603096,R,81852,,,1959-01-22,1959-01-22,Squamata,Hydrophiidae,Disteira,schistosa,,3060194,,,,,,,,,,,,,,,,,,Asia,,Pakistan,,,,,,,"W Pakistan, coastal waters near Gwadur",,,,,,,,,
3603098,R,81853,,,1959-01-22,1959-01-22,Squamata,Hydrophiidae,Disteira,schistosa,,3060194,,,,,,,,,,,,,,,,,,Asia,,Pakistan,,,,,,,"W Pakistan, coastal waters near Gwadur",,,,,,,,,
3629420,R,87490,,Jooma,1961-09-09,1961-09-09,Squamata,Hydrophiidae,Hydrophis,cantoris,,3064591,,,,,,,,,,,,,,,,,,Asia,,Pakistan,,,,,,,Clifton Beach,Karachi,,,,,,,,
3453823,R,88252,,Jooma,1962-03-06,1962-03-06,Squamata,Hydrophiidae,Hydrophis,cyanocinctus,,3043805,,,,,,,,,,,,,,,,,,Asia,,Pakistan,,,,,,,Ghiziri Creek near Clifton,,,,,,,,,
3629418,R,87489,,Minton,1961-09-30,1961-09-30,Squamata,Hydrophiidae,Hydrophis,cyanocinctus,,3064590,,,,,,,,,,,,,,,,,,Asia,,Pakistan,,,,,,,"Karachi Harbor, Yari Creek",,,,,,,,,
3628241,R,86907,,J. Anderson,1961-06-28,1961-06-28,Squamata,Hydrophiidae,Hydrophis,cyanocinctus,,3064280,,,,,,,,,,,,,,,,,,Asia,,Pakistan,,,,,,,"Ghizri Creek, nr Clifton",Karachi,,,,,,,,
3628243,R,86908,,Jooma,1961-07-10,1961-07-10,Squamata,Hydrophiidae,Hydrophis,cyanocinctus,,3064281,,,,,,,,,,,,,,,,,,Asia,,Pakistan,,,,,,,"Korangi Creek, nr PAF station",Karachi,,,,,,,,
3628233,R,86903,,Jooma,1961-07-11,1961-07-11,Squamata,Hydrophiidae,Disteira,schistosa,,3064278,,,,,,,,,,,,,,,,,,Asia,,Pakistan,,,,,,,"Korangi Creek, nr PAF-Airforce Sta",Karachi,,,,,,,,
3628235,R,86904,,Jooma,1961-07-11,1961-07-11,Squamata,Hydrophiidae,Disteira,schistosa,,3064278,,,,,,,,,,,,,,,,,,Asia,,Pakistan,,,,,,,"Korangi Creek, nr PAF-Airforce Sta",Karachi,,,,,,,,
3603100,R,81854,,,1959-01-22,1959-01-22,Squamata,Hydrophiidae,Disteira,schistosa,,3060194,,,,,,,,,,,,,,,,,,Asia,,Pakistan,,,,,,,"W Pakistan, coastal waters near Gwadur",,,,,,,,,
3603112,R,81859,,,1958-12-31,1958-12-31,Squamata,Hydrophiidae,Disteira,schistosa,,3060195,,,,,,,,,,,,,,,,,,Asia,,Pakistan,,,,,,,Coastal waters nr Karachi,Islamabad,,,,,,,,
3628285,R,86928,,James Carey,1961-02-07,1961-02-07,Squamata,Hydrophiidae,Disteira,schistosa,,3064295,,,,,,,,,,,,,,,,,,Asia,,Thailand,,,,,,,Bangkok,,,,,,,,,
3628231,R,86902,,Jooma,1961-07-10,1961-07-10,Squamata,Hydrophiidae,Disteira,schistosa,,3064277,,,,,,,,,,,,,,,,,,Asia,,Pakistan,,,,,,,"Korangi Creek, nr PAF-Airforce Sta",Karachi,,,,,,,,
3603094,R,81851,,George Napier,1958-12-05,1958-12-05,Squamata,Hydrophiidae,Disteira,schistosa,,3060193,,,,,,,,,,,,,,,,,,Asia,,Pakistan,,,,,,,Turtle Cove near Buleji,Federal Dist,,,,,,,,
3638277,R,143442,,,,,Squamata,Hydrophiidae,Hydrophis,lapemoides,,3065556,,,,,,,,,,,,,,,,,,Asia,,Iran,,,,,,,Persian Gulf,,,,,,,,,
3499440,R,58066,,,1935-03-26,1935-03-26,Squamata,Hydrophiidae,Pelamis,platurus,,3049908,,,,,,,,,,,,,,Yes,Yes,,,,,Ecuador,,,Galápagos Ids,,,Pacific Ocean,"53 mi NE of Tower Island, Galápagos",[Galápagos],,,,,,,0.83,-89.20
3470226,R,76865,,Babu N. Kylas,1957-01-11,1957-01-11,Squamata,Hydrophiidae,Lapemis,curtus,,3046634,,,,,,,,,,,,,,Yes,Yes,,,Asia,,India,,,,,,,"Veli Sea, Trivandrum",,,,,,,,8.30,76.6000
3453825,R,88253,,John E. Minton,1962-01-30,1962-01-30,Squamata,Hydrophiidae,Pelamis,platurus,,3043806,,,,,,,,,,,,,,,,,,Asia,,Pakistan,Karachi,,,,,,Clifton,,,,,,,,,
3399732,R,64612,,,,,Squamata,Hydrophiidae,Pelamis,platurus,,3027248,,,,,,,,,,,,,,,,,,No Data,,No Data,,,,,,,,,,,,,,,,
3578135,R,14169,,Malcolm A. Smith M.D.,,,Squamata,Hydrophiidae,Aipysurus,eydouxi,,3056788,,,,,,,,,,,,,,,,,,Asia,,,,,,,,,,,Gulf of Siam,,,,,,,
3578141,R,14172,,Malcolm A. Smith M.D.,,,Squamata,Hydrophiidae,Hydrophis,klossi,,3056788,,,,,,,,,,,,,,,,,,Asia,,,,,,,,,,,Gulf of Siam,,,,,,,
3628245,R,86909,,Jooma,1961-07-10,1961-07-10,Squamata,Hydrophiidae,Hydrophis,cantoris,,3064281,,,,,,,,,,,,,,,,,,Asia,,Pakistan,,,,,,,"Korangi Creek, nr PAF station",Karachi,,,,,,,,
3578145,R,14174,,Malcolm A. Smith M.D.,,,Squamata,Hydrophiidae,Hydrophis,torquatus,diadema,3056788,,,,,,,,,,,,,,,,,,Asia,,,,,,,,,,,Gulf of Siam,,,,,,,
3578158,R,14180,,Malcolm A. Smith M.D.,,,Squamata,Hydrophiidae,Lapemis,curtus,,3056788,,,,,,,,,,,,,,,,,,Asia,,,,,,,,,,,Gulf of Siam,,,,,,,
3600849,R,81510,,Madge R. Minton & Sherman A. Minton,1958-09-03,1958-09-03,Squamata,Hydrophiidae,Disteira,schistosa,,3059827,,,,,,,,,,,,,,,,,,Asia,,Pakistan,,,,,,,Gharo Cr Bridge near Gharo,Thatta,,,,,,,,
3420100,R,66580,,James A. Oliver,1945-09-13,1945-09-13,Squamata,Hydrophiidae,Laticauda,laticaudata,,3038939,,,,,,,,,,,,,,,,,,Asia,,[Japan],,,,,,,"Buckner Bay, Okinawa (Nakagusuku Wan)",Ryu Kyu Islands,,,,,,,,
3622316,R,84024,,Walter Pfeffer,1958-07-,1958-07-,Squamata,Hydrophiidae,Pelamis,platurus,,3063019,,,,,,,,,,,,,,,,,,Asia,,Pakistan,,,,,,,Clifton Beach,Karachi,,,,,,,,
3626059,R,85868,,O. Priddle,1961-01-23,1961-01-23,Squamata,Hydrophiidae,Pelamis,platurus,,3063954,,,,,,,,,,,,,,,,,,Asia,,Pakistan,,,,,,,"Arabian Sea, ca 20 mi off Cape Monze",Karachi,,,,,,,,
3578149,R,14176,,Malcolm A. Smith M.D.,,,Squamata,Hydrophiidae,Hydrophis,fasciatus,atriceps,3056788,,,,,,,,,,,,,,,,,,Asia,,,,,,,,,,,Gulf of Siam,,,,,,,
3578151,R,14177,,Malcolm A. Smith M.D.,,,Squamata,Hydrophiidae,Hydrophis,fasciatus,atriceps,3056788,,,,,,,,,,,,,,,,,,Asia,,,,,,,,,,,Gulf of Siam,,,,,,,
3578153,R,14178,,Malcolm A. Smith M.D.,,,Squamata,Hydrophiidae,Hydrophis,fasciatus,atriceps,3056788,,,,,,,,,,,,,,,,,,Asia,,,,,,,,,,,Gulf of Siam,,,,,,,
3470230,R,76866,,Babu N. Kylas,1957-01-14,1957-01-14,Squamata,Hydrophiidae,Hydrophis,gracilis,,3046634,,,,,,,,,,,,,,Yes,Yes,,,Asia,,India,,,,,,,"Veli Sea, Trivandrum",,,,,,,,8.30,76.6000
3547292,R,20956,,Australian Museum,,,Squamata,Hydrophiidae,Laticauda,colubrina,,3054085,,,,,,,,,,,,,,,,,,South Pacific,,Tonga,,,,,,,,,,,,,,,,
5153754,R,161756,,"Sherman A. Minton, W. Fairservis & N. B. Chugtai",1959-12-19,1959-12-19,Squamata,Hydrophiidae,Enhydrina,schistosa,,5009562,,,,,,,,,,,,,,,,,,Asia,,Pakistan,,,,,,,Churna Island off mouth of Hab River,Sind,,,,,,,,
5153802,R,161780,,George Caldwell,1960-03-06,1960-03-06,Squamata,Hydrophiidae,Pelamis,platurus,,5009521,,,,,,,,,,,,,,,,,,Asia,,Pakistan,Karachi Dist.,,,,,,Hawke's Bay beach,Sind,,,,,,,,
5153806,R,161782,,Harold Beeson,1960-10-15,1960-10-15,Squamata,Hydrophiidae,Praescutata,viperina,,5009521,,,,,,,,,,,,,,,,,,Asia,,Pakistan,Karachi Dist.,,,,,,Hawke's Bay beach,Sind,,,,,,,,
5153778,R,161768,,Sidney Gulick,1961-02-12,1961-02-12,Squamata,Hydrophiidae,Hydrophis,mamillaris,,5009453,,,,,,,,,,,,,,,,,,Asia,,Pakistan,Las Bela,,,,,,Sonmiani Beach,Baluchistan,,,,,,,,
5153764,R,161761,,Jerry Anderson,1961-06-28,1961-06-28,Squamata,Hydrophiidae,Hydrophis,cyanocinctus,,5009519,,,,,,,,,,,,,,,,,,Asia,,Pakistan,Karachi Dist.,,,,,,Ghizri Creek,Sind,,,,,,,,
5153758,R,161758,,Jooma,1961-09-09,1961-09-09,Squamata,Hydrophiidae,Hydrophis,cantoris,,5009515,,,,,,,,,,,,,,,,,,Asia,,Pakistan,Karachi Dist.,,,,,,Clifton Beach,Sind,,,,,,,,
5153776,R,161767,,Sherman A. Minton,1962-06-25,1962-06-25,Squamata,Hydrophiidae,Hydrophis,lapemoides,,5009520,,,,,,,,,,,,,,,,,,Asia,,Pakistan,Karachi Dist.,,,,,,Hawke's Bay,Sind,,,,,,,,
5153772,R,161765,,Leslie Davis,1962-08-20,1962-08-20,Squamata,Hydrophiidae,Hydrophis,gracilis,,5009520,,,,,,,,,,,,,,,,,,Asia,,Pakistan,Karachi Dist.,,,,,,Hawke's Bay,Sind,,,,,,,,
5153786,R,161772,,J. A. Anderson,1962-11-25,1962-11-25,Squamata,Hydrophiidae,Hydrophis,spiralis,,5009563,,,,,,,,,,,,,,,,,,Asia,,Pakistan,,,,,,,Khara Coast off Rann of Kutch,Sind,,,,,,,,
5153766,R,161762,,J. A. Anderson,1962-12-02,1962-12-02,Squamata,Hydrophiidae,Hydrophis,cyanocinctus,,5009516,,,,,,,,,,,,,,,,,,Asia,,Pakistan,Karachi Dist.,,,,,,coastal waters 12 mi. off Karachi,Sind,,,,,,,,
5153804,R,161781,,,1975,1975,Squamata,Hydrophiidae,Pelamis,platurus,,5009379,,,,,,,,,,,,,,,,,,Asia,,India,,,,,,,coastal waters nr. Madras,,,,,,,,,
5153788,R,161773,,,1983-09-,1983-09-,Squamata,Hydrophiidae,Lapemis,curtus,,5009456,,,,,,,,,,,,,,,,,,Asia,,Pakistan,Las Bela District,,,,,,Sonmiani Beach,Baluchistan,,,,,,,,
5296221,R,173614,,,,,Squamata,Hydrophiidae,Hydrophis,sp.,,5024409,,,,,,,,,,,,,,,,,,No Data,,No Data,,,,,,,,,,,,,,,,
5306818,R,175205,,,,,Squamata,Hydrophiidae,Hydrophis,sp.,,5024409,,,,,,,,,,,,,,,,,,No Data,,No Data,,,,,,,,,,,,,,,,
3512655,R,44962,,C. F. Maxwell,1913,1913,Squamata,Hydrophiidae,Laticauda,schistorhynchus,,3051079,,,,,,,,,,,,,,,,,,South Pacific,,,,,,,,,Niue (or Savage Id) near the Tonga or Friendly Group,,,,,,,,,
3603495,R,2738,,Mason Mitchell & Amer Consul,1910-04-,1910-04-,Squamata,Hydrophiidae,Pelamis,platurus,,3060274,,,,,,,,,,,,,,,,,,South Pacific,,Samoa,,,,,,,Apia,,,,,,,,,
3603497,R,2739,,Mason Mitchell & Amer Consul,1910-04-,1910-04-,Squamata,Hydrophiidae,Pelamis,platurus,,3060274,,,,,,,,,,,,,,,,,,South Pacific,,Samoa,,,,,,,Apia,,,,,,,,,
3603713,R,2852,,Bashford Dean,1905,1905,Squamata,Hydrophiidae,Pelamis,sp.,,3060305,,,,,,,,,,,,,,,,,,Asia,,Japan,,,,,,,,,,,,,,,,
3606607,R,3900,,Maximilian,,,Squamata,Hydrophiidae,Praescutata,viperina,,3060909,,,,,,,,,,,,,,,,,,,,,,,,,,Indian Ocean,Indian Ocean,,,,,,,,,
3608878,R,4998,,,,,Squamata,Hydrophiidae,Emydocephalus,annulatus,,3027248,,,,,,,,,,,,,,,,,,No Data,,No Data,,,,,,,,,,,,,,,,
3406254,R,98461,,,1937-11-15,1937-11-15,Squamata,Hydrophiidae,Pelamis,platurus,,3036646,,,,,,,,,,,,,,,,,,North America,,Mexico,,,,,,,Bahia Banderas,Jalisco,,,,,,,,
3567412,R,19335,,P. Ruthling,1920-02-07,1920-02-07,Squamata,Hydrophiidae,Pelamis,platurus,,3056150,,,,,,,,,,,,,,,,,,North America,,Mexico,,,,,,,high seas about 15 mi from shore between Mazatlan (Sinaloa) and San Blas (Nayarit),Sinaloa/Nayarit,,,,,,,,
3592054,R,19340,,P. Ruthling,1920-02-07,1920-02-07,Squamata,Hydrophiidae,Pelamis,platurus,,3056150,,,,,,,,,,,,,,,,,,North America,,Mexico,,,,,,,high seas about 15 mi from shore between Mazatlan (Sinaloa) and San Blas (Nayarit),Sinaloa/Nayarit,,,,,,,,
3592056,R,19339,,P. Ruthling,1920-02-07,1920-02-07,Squamata,Hydrophiidae,Pelamis,platurus,,3056150,,,,,,,,,,,,,,,,,,North America,,Mexico,,,,,,,high seas about 15 mi from shore between Mazatlan (Sinaloa) and San Blas (Nayarit),Sinaloa/Nayarit,,,,,,,,
3592062,R,19336,,P. Ruthling,1920-02-07,1920-02-07,Squamata,Hydrophiidae,Pelamis,platurus,,3056150,,,,,,,,,,,,,,,,,,North America,,Mexico,,,,,,,high seas about 15 mi from shore between Mazatlan (Sinaloa) and San Blas (Nayarit),Sinaloa/Nayarit,,,,,,,,
3592064,R,19334,,P. Ruthling,1920-02-07,1920-02-07,Squamata,Hydrophiidae,Pelamis,platurus,,3056150,,,,,,,,,,,,,,,,,,North America,,Mexico,,,,,,,high seas about 15 mi from shore between Mazatlan (Sinaloa) and San Blas (Nayarit),Sinaloa/Nayarit,,,,,,,,
3592066,R,19333,,P. Ruthling,1920-02-07,1920-02-07,Squamata,Hydrophiidae,Pelamis,platurus,,3056150,,,,,,,,,,,,,,,,,,North America,,Mexico,,,,,,,high seas about 15 mi from shore between Mazatlan (Sinaloa) and San Blas (Nayarit),Sinaloa/Nayarit,,,,,,,,
3592068,R,19332,,P. Ruthling,1920-02-07,1920-02-07,Squamata,Hydrophiidae,Pelamis,platurus,,3056150,,,,,,,,,,,,,,,,,,North America,,Mexico,,,,,,,high seas about 15 mi from shore between Mazatlan (Sinaloa) and San Blas (Nayarit),Sinaloa/Nayarit,,,,,,,,
3592070,R,19331,,P. Ruthling,1920-02-07,1920-02-07,Squamata,Hydrophiidae,Pelamis,platurus,,3056150,,,,,,,,,,,,,,,,,,North America,,Mexico,,,,,,,high seas about 15 mi from shore between Mazatlan (Sinaloa) and San Blas (Nayarit),Sinaloa/Nayarit,,,,,,,,
3592072,R,19330,,P. Ruthling,1920-02-07,1920-02-07,Squamata,Hydrophiidae,Pelamis,platurus,,3056150,,,,,,,,,,,,,,,,,,North America,,Mexico,,,,,,,high seas about 15 mi from shore between Mazatlan (Sinaloa) and San Blas (Nayarit),Sinaloa/Nayarit,,,,,,,,
3592074,R,19329,,P. Ruthling,1920-02-07,1920-02-07,Squamata,Hydrophiidae,Pelamis,platurus,,3056150,,,,,,,,,,,,,,,,,,North America,,Mexico,,,,,,,high seas about 15 mi from shore between Mazatlan (Sinaloa) and San Blas (Nayarit),Sinaloa/Nayarit,,,,,,,,
3592076,R,19328,,P. Ruthling,1920-02-07,1920-02-07,Squamata,Hydrophiidae,Pelamis,platurus,,3056150,,,,,,,,,,,,,,,,,,North America,,Mexico,,,,,,,high seas about 15 mi from shore between Mazatlan (Sinaloa) and San Blas (Nayarit),Sinaloa/Nayarit,,,,,,,,
3592078,R,19327,,P. Ruthling,1920-02-07,1920-02-07,Squamata,Hydrophiidae,Pelamis,platurus,,3056150,,,,,,,,,,,,,,,,,,North America,,Mexico,,,,,,,high seas about 15 mi from shore between Mazatlan (Sinaloa) and San Blas (Nayarit),Sinaloa/Nayarit,,,,,,,,
3377440,R,123923,,William Lopez-Forment,1970-05-,1970-05-,Squamata,Hydrophiidae,Pelamis,platurus,,3032044,,,,,,,,,,,,,,,,,,North America,,Mexico,,,,,,,Bay of Chamela,Jalisco,,,,,,,,
3377437,R,123922,,William Lopez-Forment,1970-05-,1970-05-,Squamata,Hydrophiidae,Pelamis,platurus,,3032044,,,,,,,,,,,,,,,,,,North America,,Mexico,,,,,,,Bay of Chamela,Jalisco,,,,,,,,
3592112,R,19312,,P. Ruthling,1920-02-10,1920-02-10,Squamata,Hydrophiidae,Pelamis,platurus,,3058604,,,,,,,,,,,,,,,,,,North America,,Mexico,,,,,,,S of Vallarta off coasts of Colima and Jalisco,Colima/Jalisco,,,,,,,,
3592114,R,19311,,P. Ruthling,1920-02-10,1920-02-10,Squamata,Hydrophiidae,Pelamis,platurus,,3058604,,,,,,,,,,,,,,,,,,North America,,Mexico,,,,,,,S of Vallarta off coasts of Colima and Jalisco,Colima/Jalisco,,,,,,,,
3592116,R,19310,,P. Ruthling,1920-02-10,1920-02-10,Squamata,Hydrophiidae,Pelamis,platurus,,3058604,,,,,,,,,,,,,,,,,,North America,,Mexico,,,,,,,S of Vallarta off coasts of Colima and Jalisco,Colima/Jalisco,,,,,,,,
3592080,R,19326,,P. Ruthling,1920-02-10,1920-02-10,Squamata,Hydrophiidae,Pelamis,platurus,,3058604,,,,,,,,,,,,,,,,,,North America,,Mexico,,,,,,,S of Vallarta off coasts of Colima and Jalisco,Colima/Jalisco,,,,,,,,
3592082,R,19325,,P. Ruthling,1920-02-10,1920-02-10,Squamata,Hydrophiidae,Pelamis,platurus,,3058604,,,,,,,,,,,,,,,,,,North America,,Mexico,,,,,,,S of Vallarta off coasts of Colima and Jalisco,Colima/Jalisco,,,,,,,,
3592084,R,19324,,P. Ruthling,1920-02-10,1920-02-10,Squamata,Hydrophiidae,Pelamis,platurus,,3058604,,,,,,,,,,,,,,,,,,North America,,Mexico,,,,,,,S of Vallarta off coasts of Colima and Jalisco,Colima/Jalisco,,,,,,,,
3592086,R,19323,,P. Ruthling,1920-02-10,1920-02-10,Squamata,Hydrophiidae,Pelamis,platurus,,3058604,,,,,,,,,,,,,,,,,,North America,,Mexico,,,,,,,S of Vallarta off coasts of Colima and Jalisco,Colima/Jalisco,,,,,,,,
3592088,R,19322,,P. Ruthling,1920-02-10,1920-02-10,Squamata,Hydrophiidae,Pelamis,platurus,,3058604,,,,,,,,,,,,,,,,,,North America,,Mexico,,,,,,,S of Vallarta off coasts of Colima and Jalisco,Colima/Jalisco,,,,,,,,
3592090,R,19321,,P. Ruthling,1920-02-10,1920-02-10,Squamata,Hydrophiidae,Pelamis,platurus,,3058604,,,,,,,,,,,,,,,,,,North America,,Mexico,,,,,,,S of Vallarta off coasts of Colima and Jalisco,Colima/Jalisco,,,,,,,,
3592092,R,19320,,P. Ruthling,1920-02-10,1920-02-10,Squamata,Hydrophiidae,Pelamis,platurus,,3058604,,,,,,,,,,,,,,,,,,North America,,Mexico,,,,,,,S of Vallarta off coasts of Colima and Jalisco,Colima/Jalisco,,,,,,,,
3592094,R,19319,,P. Ruthling,1920-02-10,1920-02-10,Squamata,Hydrophiidae,Pelamis,platurus,,3058604,,,,,,,,,,,,,,,,,,North America,,Mexico,,,,,,,S of Vallarta off coasts of Colima and Jalisco,Colima/Jalisco,,,,,,,,
3592096,R,19318,,P. Ruthling,1920-02-10,1920-02-10,Squamata,Hydrophiidae,Pelamis,platurus,,3058604,,,,,,,,,,,,,,,,,,North America,,Mexico,,,,,,,S of Vallarta off coasts of Colima and Jalisco,Colima/Jalisco,,,,,,,,
3592098,R,19317,,P. Ruthling,1920-02-10,1920-02-10,Squamata,Hydrophiidae,Pelamis,platurus,,3058604,,,,,,,,,,,,,,,,,,North America,,Mexico,,,,,,,S of Vallarta off coasts of Colima and Jalisco,Colima/Jalisco,,,,,,,,
3592100,R,19316,,P. Ruthling,1920-02-10,1920-02-10,Squamata,Hydrophiidae,Pelamis,platurus,,3058604,,,,,,,,,,,,,,,,,,North America,,Mexico,,,,,,,S of Vallarta off coasts of Colima and Jalisco,Colima/Jalisco,,,,,,,,
3592104,R,19315,,P. Ruthling,1920-02-10,1920-02-10,Squamata,Hydrophiidae,Pelamis,platurus,,3058604,,,,,,,,,,,,,,,,,,North America,,Mexico,,,,,,,S of Vallarta off coasts of Colima and Jalisco,Colima/Jalisco,,,,,,,,
3592106,R,19314,,P. Ruthling,1920-02-10,1920-02-10,Squamata,Hydrophiidae,Pelamis,platurus,,3058604,,,,,,,,,,,,,,,,,,North America,,Mexico,,,,,,,S of Vallarta off coasts of Colima and Jalisco,Colima/Jalisco,,,,,,,,
3592108,R,19313,,P. Ruthling,1920-02-10,1920-02-10,Squamata,Hydrophiidae,Pelamis,platurus,,3058604,,,,,,,,,,,,,,,,,,North America,,Mexico,,,,,,,S of Vallarta off coasts of Colima and Jalisco,Colima/Jalisco,,,,,,,,
3606595,R,3895,,L. Diguet,1899,1901,Squamata,Hydrophiidae,Pelamis,platurus,,3060907,,,,,,,,,,,,,,,,,,North America,,Mexico,,,,,,,Gulf of California,,,,,,,,,
5270756,R,172454,,J. Pritchard,1971-12-27,1971-12-27,Squamata,Hydrophiidae,Pelamis,platurus,,5024295,,,,,,,,,,,,,,,,,,North America,,Mexico,,,,,,,2 mi N of Santiago on Pacific Coast,Colima,,,,,,,,
5270758,R,172455,,J. Pritchard,1972-01-03,1972-01-03,Squamata,Hydrophiidae,Pelamis,platurus,,5024300,,,,,,,,,,,,,,,,,,North America,,Mexico,,,,,,,N shore of Santiago Bay,Colima,,,,,,,,
3644728,R,146971,,W. Beebe,1938-01-28,1938-01-28,Squamata,Hydrophiidae,Pelamis,platurus,,3065907,,,,,,,,,,,,,,,,,,North America,,Costa Rica,,,,,,,Culebra Bay,,,,,,,,,
3406244,R,98459,,,1938-02-02,1938-02-02,Squamata,Hydrophiidae,Pelamis,platurus,,3036643,,,,,,,,,,,,,,,,,,North America,,Costa Rica,,,,,,,Bahia Piedra de Blanca,Guanacaste,,,,,,,,
3406222,R,98448,,,1938-01-,1938-01-,Squamata,Hydrophiidae,Pelamis,platurus,,3036641,,,,,,,,,,,,,,,,,,North America,,Costa Rica,,,,,,,"Puerto Parker, Golfo Elena",Guanacaste,,,,,,,,
3406224,R,98449,,,1938-01-,1938-01-,Squamata,Hydrophiidae,Pelamis,platurus,,3036641,,,,,,,,,,,,,,,,,,North America,,Costa Rica,,,,,,,"Puerto Parker, Golfo Elena",Guanacaste,,,,,,,,
3406226,R,98450,,,1938-01-,1938-01-,Squamata,Hydrophiidae,Pelamis,platurus,,3036641,,,,,,,,,,,,,,,,,,North America,,Costa Rica,,,,,,,"Puerto Parker, Golfo Elena",Guanacaste,,,,,,,,
3406228,R,98451,,,1938-01-,1938-01-,Squamata,Hydrophiidae,Pelamis,platurus,,3036641,,,,,,,,,,,,,,,,,,North America,,Costa Rica,,,,,,,"Puerto Parker, Golfo Elena",Guanacaste,,,,,,,,
3344293,R,131480,,Chaim Kropack,1970,1970,Squamata,Hydrophiidae,Pelamis,platurus,,3027344,,,,,,,,,,,,,,,,,,North America,,'Costa Rica',,,,,,,,,,,,,,,,
3606599,R,3897,,,,,Squamata,Hydrophiidae,Pelamis,platurus,,3060908,,,,,,,,,,,,,,,,,,North America,,Costa Rica,,,,,,,,,,,,,,,,
3586549,R,17260,,,,,Squamata,Hydrophiidae,Pelamis,platurus,,3057736,,,,,,,,,,,,,,,,,,North America,,Costa Rica,,,,,,,Punta Arenas,,,,,,,,,
3344295,R,131481,,Chaim Kropack,1970,1970,Squamata,Hydrophiidae,Pelamis,platurus,,3027345,,,,,,,,,,,,,,,,,,North America,,Costa Rica,,,,,,,Golfo Dulce,,,,,,,,,
3344297,R,131482,,Chaim Kropack,1970,1970,Squamata,Hydrophiidae,Pelamis,platurus,,3027345,,,,,,,,,,,,,,,,,,North America,,Costa Rica,,,,,,,Golfo Dulce,,,,,,,,,
3344299,R,131483,,Chaim Kropack,1970,1970,Squamata,Hydrophiidae,Pelamis,platurus,,3027345,,,,,,,,,,,,,,,,,,North America,,Costa Rica,,,,,,,Golfo Dulce,,,,,,,,,
3344301,R,131484,,Chaim Kropack,1970,1970,Squamata,Hydrophiidae,Pelamis,platurus,,3027345,,,,,,,,,,,,,,,,,,North America,,Costa Rica,,,,,,,Golfo Dulce,,,,,,,,,
3344303,R,131485,,Chaim Kropack,1970,1970,Squamata,Hydrophiidae,Pelamis,platurus,,3027345,,,,,,,,,,,,,,,,,,North America,,Costa Rica,,,,,,,Golfo Dulce,,,,,,,,,
3344305,R,131486,,Chaim Kropack,1970,1970,Squamata,Hydrophiidae,Pelamis,platurus,,3027345,,,,,,,,,,,,,,,,,,North America,,Costa Rica,,,,,,,Golfo Dulce,,,,,,,,,
3344307,R,131487,,Chaim Kropack,1970,1970,Squamata,Hydrophiidae,Pelamis,platurus,,3027345,,,,,,,,,,,,,,,,,,North America,,Costa Rica,,,,,,,Golfo Dulce,,,,,,,,,
3344309,R,131488,,Chaim Kropack,1970,1970,Squamata,Hydrophiidae,Pelamis,platurus,,3027345,,,,,,,,,,,,,,,,,,North America,,Costa Rica,,,,,,,Golfo Dulce,,,,,,,,,
3344311,R,131489,,Chaim Kropack,1970,1970,Squamata,Hydrophiidae,Pelamis,platurus,,3027345,,,,,,,,,,,,,,,,,,North America,,Costa Rica,,,,,,,Golfo Dulce,,,,,,,,,
3406230,R,98452,,,1938-01-29,1938-01-30,Squamata,Hydrophiidae,Pelamis,platurus,,3036642,,,,,,,,,,,,,,,,,,North America,,Costa Rica,,,,,,,Puerto Culebra,Guanacaste,,,,,,,,
3406232,R,98453,,,1938-01-29,1938-01-30,Squamata,Hydrophiidae,Pelamis,platurus,,3036642,,,,,,,,,,,,,,,,,,North America,,Costa Rica,,,,,,,Puerto Culebra,Guanacaste,,,,,,,,
3406234,R,98454,,,1938-01-29,1938-01-30,Squamata,Hydrophiidae,Pelamis,platurus,,3036642,,,,,,,,,,,,,,,,,,North America,,Costa Rica,,,,,,,Puerto Culebra,Guanacaste,,,,,,,,
3406242,R,98458,,,1938-01-29,1938-01-30,Squamata,Hydrophiidae,Pelamis,platurus,,3036642,,,,,,,,,,,,,,,,,,North America,,Costa Rica,,,,,,,Puerto Culebra,Guanacaste,,,,,,,,
3406238,R,98456,,,1938-01-29,1938-01-30,Squamata,Hydrophiidae,Pelamis,platurus,,3036642,,,,,,,,,,,,,,,,,,North America,,Costa Rica,,,,,,,Puerto Culebra,Guanacaste,,,,,,,,
3406236,R,98455,,,1938-01-29,1938-01-30,Squamata,Hydrophiidae,Pelamis,platurus,,3036642,,,,,,,,,,,,,,,,,,North America,,Costa Rica,,,,,,,Puerto Culebra,Guanacaste,,,,,,,,
3406240,R,98457,,,1938-01-29,1938-01-30,Squamata,Hydrophiidae,Pelamis,platurus,,3036642,,,,,,,,,,,,,,,,,,North America,,Costa Rica,,,,,,,Puerto Culebra,Guanacaste,,,,,,,,
3584044,R,138601,,Grace M. Tilger,1987-07-26,1987-07-26,Squamata,Hydrophiidae,Pelamis,platurus,,3057529,,,,,,,,,,,,,,,,,,North America,,Costa Rica,,,,,,,"Hotel Delfin, Playa Bajuco, nr Playa Esterillos",Puntarenas,,,,,,,,
5065434,R,160742,,Max A. Nickerson,1973-06-26,1973-06-26,Squamata,Hydrophiidae,Pelamis,platurus,,5004753,,,,,,,,,,,,,,,,,,North America,,Costa Rica,,,,,,,"Bahia de Culebra, near El Coco",Guanacaste,,,,,,,,
5163728,R,160150,,P. Starrett,1957,1957,Squamata,Hydrophiidae,Pelamis,platurus,,5011397,,,,,,,,,,,,,,,,,,North America,,Costa Rica,,,,,,,,,,,,,,,,
5163730,R,160151,,,,,Squamata,Hydrophiidae,Pelamis,platurus,,5011397,,,,,,,,,,,,,,,,,,North America,,Costa Rica,,,,,,,,,,,,,,,,
3344323,R,131495,,Chaim Kropack,1971-09-15,1971-09-15,Squamata,Hydrophiidae,Pelamis,platurus,,3027348,,,,,,,,,,,,,,,,,,North America,,Panama,,,,,,,"Western Panama, Isla Jicarón",,,,,,,,,
3344365,R,131516,,Chaim Kropack,1969-09-18,1969-09-18,Squamata,Hydrophiidae,Pelamis,platurus,,3027354,,,,,,,,,,,,,,,,,,North America,,Panama,,,,,,,several miles north of Isla Pacheca,Bay of Panama,,,,,,,,
3344367,R,131517,,Chaim Kropack,1969-09-18,1969-09-18,Squamata,Hydrophiidae,Pelamis,platurus,,3027354,,,,,,,,,,,,,,,,,,North America,,Panama,,,,,,,several miles north of Isla Pacheca,Bay of Panama,,,,,,,,
3344369,R,131518,,Chaim Kropack,1969-09-18,1969-09-18,Squamata,Hydrophiidae,Pelamis,platurus,,3027354,,,,,,,,,,,,,,,,,,North America,,Panama,,,,,,,several miles north of Isla Pacheca,Bay of Panama,,,,,,,,
3344371,R,131519,,Chaim Kropack,1969-09-18,1969-09-18,Squamata,Hydrophiidae,Pelamis,platurus,,3027354,,,,,,,,,,,,,,,,,,North America,,Panama,,,,,,,several miles north of Isla Pacheca,Bay of Panama,,,,,,,,
3344373,R,131520,,Chaim Kropack,1969-09-18,1969-09-18,Squamata,Hydrophiidae,Pelamis,platurus,,3027354,,,,,,,,,,,,,,,,,,North America,,Panama,,,,,,,several miles north of Isla Pacheca,Bay of Panama,,,,,,,,
3344375,R,131521,,Chaim Kropack,1969-09-18,1969-09-18,Squamata,Hydrophiidae,Pelamis,platurus,,3027354,,,,,,,,,,,,,,,,,,North America,,Panama,,,,,,,several miles north of Isla Pacheca,Bay of Panama,,,,,,,,
3344377,R,131522,,Chaim Kropack,1969-09-18,1969-09-18,Squamata,Hydrophiidae,Pelamis,platurus,,3027354,,,,,,,,,,,,,,,,,,North America,,Panama,,,,,,,several miles north of Isla Pacheca,Bay of Panama,,,,,,,,
3344379,R,131523,,Chaim Kropack,1969-09-18,1969-09-18,Squamata,Hydrophiidae,Pelamis,platurus,,3027354,,,,,,,,,,,,,,,,,,North America,,Panama,,,,,,,several miles north of Isla Pacheca,Bay of Panama,,,,,,,,
3344381,R,131524,,Chaim Kropack,1969-09-18,1969-09-18,Squamata,Hydrophiidae,Pelamis,platurus,,3027354,,,,,,,,,,,,,,,,,,North America,,Panama,,,,,,,several miles north of Isla Pacheca,Bay of Panama,,,,,,,,
3344383,R,131525,,Chaim Kropack,1969-09-18,1969-09-18,Squamata,Hydrophiidae,Pelamis,platurus,,3027354,,,,,,,,,,,,,,,,,,North America,,Panama,,,,,,,several miles north of Isla Pacheca,Bay of Panama,,,,,,,,
3380446,R,108704,,,1972-03-13,1972-03-13,Squamata,Hydrophiidae,Pelamis,platurus,,3032337,,,,,,,,,,,,,,,,,,North America,,Panama,,,,,,,Isla Contadora,Pearl Ids,,,,,,,,
3380448,R,108705,,,1972-03-13,1972-03-13,Squamata,Hydrophiidae,Pelamis,platurus,,3032337,,,,,,,,,,,,,,,,,,North America,,Panama,,,,,,,Isla Contadora,Pearl Ids,,,,,,,,
3380444,R,108703,,,1972-03-13,1972-03-13,Squamata,Hydrophiidae,Pelamis,platurus,,3032337,,,,,,,,,,,,,,,,,,North America,,Panama,,,,,,,Isla Contadora,Pearl Ids,,,,,,,,
3344317,R,131492,,Chaim Kropack,1970-01-18,1970-01-18,Squamata,Hydrophiidae,Pelamis,platurus,,3027347,,,,,,,,,,,,,,,,,,North America,,Panama,,,,,,,"Bay of Panama, SE of Isla Taboga",[Panamá],,,,,,,,
3344319,R,131493,,Chaim Kropack,1970-01-18,1970-01-18,Squamata,Hydrophiidae,Pelamis,platurus,,3027347,,,,,,,,,,,,,,,,,,North America,,Panama,,,,,,,"Bay of Panama, SE of Isla Taboga",[Panamá],,,,,,,,
3344321,R,131494,,Chaim Kropack,1970-01-18,1970-01-18,Squamata,Hydrophiidae,Pelamis,platurus,,3027347,,,,,,,,,,,,,,,,,,North America,,Panama,,,,,,,"Bay of Panama, SE of Isla Taboga",[Panamá],,,,,,,,
3551375,R,22690,,John E. Thayer,1904,1904,Squamata,Hydrophiidae,Pelamis,platurus,,3054454,,,,,,,,,,,,,,,,,,North America,,Panama,,,,,,,,,,,,,,,,
3344413,R,131540,,Chaim Kropack,1969-09-22,1969-09-22,Squamata,Hydrophiidae,Pelamis,platurus,,3027357,,,,,,,,,,,,,,,,,,North America,,Panama,,,,,,,"Balboa, Naos Beach",Bay of Panama,,,,,,,,
3344415,R,131541,,Chaim Kropack,1969-09-22,1969-09-22,Squamata,Hydrophiidae,Pelamis,platurus,,3027357,,,,,,,,,,,,,,,,,,North America,,Panama,,,,,,,"Balboa, Naos Beach",Bay of Panama,,,,,,,,
3498514,R,57775,,Otis Barton,,,Squamata,Hydrophiidae,Pelamis,platurus,,3049754,,,,,,,,,,,,,,,,,,North America,,Panama,,,,,,,Pearl Is,,,,,,,,,
3344385,R,131526,,Chaim Kropack,1969-09-17,1969-09-17,Squamata,Hydrophiidae,Pelamis,platurus,,3027355,,,,,,,,,,,,,,,,,,North America,,Panama,,,,,,,about 1 mile north of Isla Pacheca,Bay of Panama,,,,,,,,
3344387,R,131527,,Chaim Kropack,1969-09-17,1969-09-17,Squamata,Hydrophiidae,Pelamis,platurus,,3027355,,,,,,,,,,,,,,,,,,North America,,Panama,,,,,,,about 1 mile north of Isla Pacheca,Bay of Panama,,,,,,,,
3344389,R,131528,,Chaim Kropack,1969-09-17,1969-09-17,Squamata,Hydrophiidae,Pelamis,platurus,,3027355,,,,,,,,,,,,,,,,,,North America,,Panama,,,,,,,about 1 mile north of Isla Pacheca,Bay of Panama,,,,,,,,
3344391,R,131529,,Chaim Kropack,1969-09-17,1969-09-17,Squamata,Hydrophiidae,Pelamis,platurus,,3027355,,,,,,,,,,,,,,,,,,North America,,Panama,,,,,,,about 1 mile north of Isla Pacheca,Bay of Panama,,,,,,,,
3344393,R,131530,,Chaim Kropack,1969-09-17,1969-09-17,Squamata,Hydrophiidae,Pelamis,platurus,,3027355,,,,,,,,,,,,,,,,,,North America,,Panama,,,,,,,about 1 mile north of Isla Pacheca,Bay of Panama,,,,,,,,
3344395,R,131531,,Chaim Kropack,1969-09-17,1969-09-17,Squamata,Hydrophiidae,Pelamis,platurus,,3027355,,,,,,,,,,,,,,,,,,North America,,Panama,,,,,,,about 1 mile north of Isla Pacheca,Bay of Panama,,,,,,,,
3344397,R,131532,,Chaim Kropack,1969-09-17,1969-09-17,Squamata,Hydrophiidae,Pelamis,platurus,,3027355,,,,,,,,,,,,,,,,,,North America,,Panama,,,,,,,about 1 mile north of Isla Pacheca,Bay of Panama,,,,,,,,
3344347,R,131507,,Chaim Kropack,1970-02-18,1970-02-18,Squamata,Hydrophiidae,Pelamis,platurus,,3027350,,,,,,,,,,,,,,,,,,North America,,Panama,,,,,,,canal anchorage near Islas Flamenco/Perico,Bay of Panama,,,,,,,,
3344351,R,131509,,Chaim Kropack,1970-06-14,1970-06-14,Squamata,Hydrophiidae,Pelamis,platurus,,3027352,,,,,,,,,,,,,,,,,,North America,,Panama,,,,,,,"Bay of Panama, between Isla Pacheca and Balboa (about 5-7 mi from Isla Taboga)",[Panamá],,,,,,,,
3344353,R,131510,,Chaim Kropack,1970-06-14,1970-06-14,Squamata,Hydrophiidae,Pelamis,platurus,,3027352,,,,,,,,,,,,,,,,,,North America,,Panama,,,,,,,"Bay of Panama, between Isla Pacheca and Balboa (about 5-7 mi from Isla Taboga)",[Panamá],,,,,,,,
3344355,R,131511,,Chaim Kropack,1970-06-14,1970-06-14,Squamata,Hydrophiidae,Pelamis,platurus,,3027352,,,,,,,,,,,,,,,,,,North America,,Panama,,,,,,,"Bay of Panama, between Isla Pacheca and Balboa (about 5-7 mi from Isla Taboga)",[Panamá],,,,,,,,
3344357,R,131512,,Chaim Kropack,1970-06-14,1970-06-14,Squamata,Hydrophiidae,Pelamis,platurus,,3027352,,,,,,,,,,,,,,,,,,North America,,Panama,,,,,,,"Bay of Panama, between Isla Pacheca and Balboa (about 5-7 mi from Isla Taboga)",[Panamá],,,,,,,,
3344359,R,131513,,Chaim Kropack,1970-06-14,1970-06-14,Squamata,Hydrophiidae,Pelamis,platurus,,3027352,,,,,,,,,,,,,,,,,,North America,,Panama,,,,,,,"Bay of Panama, between Isla Pacheca and Balboa (about 5-7 mi from Isla Taboga)",[Panamá],,,,,,,,
3344361,R,131514,,Chaim Kropack,1970-06-14,1970-06-14,Squamata,Hydrophiidae,Pelamis,platurus,,3027352,,,,,,,,,,,,,,,,,,North America,,Panama,,,,,,,"Bay of Panama, between Isla Pacheca and Balboa (about 5-7 mi from Isla Taboga)",[Panamá],,,,,,,,
3344831,R,131749,,Chaim Kropack,,,Squamata,Hydrophiidae,Pelamis,platurus,,3027360,,,,,,,,,,,,,,,,,,North America,,[Panama?],,,,,,,No data - probably Bay of Panama,,,,,,,,,
3344349,R,131508,,Chaim Kropack,1970-05-14,1970-05-14,Squamata,Hydrophiidae,Pelamis,platurus,,3027351,,,,,,,,,,,,,,,,,,North America,,Panama,,,,,,,halfway between Isla Pacheca and Balboa,Bay of Panama,,,,,,,,
3602812,R,81804,,Robert J. Menzies,1958-11-14,1958-11-14,Squamata,Hydrophiidae,Pelamis,platurus,,3060149,,,,,,,,,,,,,,Yes,Yes,,,North America,,Panama,,,,,,,from the surface off Panama,,,,,,,,,
3467427,R,90080,,Richard G. Zweifel,1962-06-07,1962-06-07,Squamata,Hydrophiidae,Pelamis,platurus,,3046123,,,,,,,,,,,,,,,,,,North America,,Panama,,,,,,,Nueva Gorgona,Panamá,,,,,,,,
3406250,R,98460,,,1938-03-19,1938-03-19,Squamata,Hydrophiidae,Pelamis,platurus,,3036645,,,,,,,,,,,,,,,,,,North America,,Panama,,,,,,,Bahia Honda,Veraguas,,,,,,,,
3344763,R,131715,,Chaim Kropack,1970,1970,Squamata,Hydrophiidae,Pelamis,platurus,,3027359,,,,,,,,,,,,,,,,,,North America,,Panama,,,,,,,,Bay of Panama,,,,,,,,
3344765,R,131716,,Chaim Kropack,1970,1970,Squamata,Hydrophiidae,Pelamis,platurus,,3027359,,,,,,,,,,,,,,,,,,North America,,Panama,,,,,,,,Bay of Panama,,,,,,,,
3344767,R,131717,,Chaim Kropack,1970,1970,Squamata,Hydrophiidae,Pelamis,platurus,,3027359,,,,,,,,,,,,,,,,,,North America,,Panama,,,,,,,,Bay of Panama,,,,,,,,
3344769,R,131718,,Chaim Kropack,1970,1970,Squamata,Hydrophiidae,Pelamis,platurus,,3027359,,,,,,,,,,,,,,,,,,North America,,Panama,,,,,,,,Bay of Panama,,,,,,,,
3344771,R,131719,,Chaim Kropack,1970,1970,Squamata,Hydrophiidae,Pelamis,platurus,,3027359,,,,,,,,,,,,,,,,,,North America,,Panama,,,,,,,,Bay of Panama,,,,,,,,
3344773,R,131720,,Chaim Kropack,1970,1970,Squamata,Hydrophiidae,Pelamis,platurus,,3027359,,,,,,,,,,,,,,,,,,North America,,Panama,,,,,,,,Bay of Panama,,,,,,,,
3344775,R,131721,,Chaim Kropack,1970,1970,Squamata,Hydrophiidae,Pelamis,platurus,,3027359,,,,,,,,,,,,,,,,,,North America,,Panama,,,,,,,,Bay of Panama,,,,,,,,
3344777,R,131722,,Chaim Kropack,1970,1970,Squamata,Hydrophiidae,Pelamis,platurus,,3027359,,,,,,,,,,,,,,,,,,North America,,Panama,,,,,,,,Bay of Panama,,,,,,,,
3344779,R,131723,,Chaim Kropack,1970,1970,Squamata,Hydrophiidae,Pelamis,platurus,,3027359,,,,,,,,,,,,,,,,,,North America,,Panama,,,,,,,,Bay of Panama,,,,,,,,
3344781,R,131724,,Chaim Kropack,1970,1970,Squamata,Hydrophiidae,Pelamis,platurus,,3027359,,,,,,,,,,,,,,,,,,North America,,Panama,,,,,,,,Bay of Panama,,,,,,,,
3344783,R,131725,,Chaim Kropack,1970,1970,Squamata,Hydrophiidae,Pelamis,platurus,,3027359,,,,,,,,,,,,,,,,,,North America,,Panama,,,,,,,,Bay of Panama,,,,,,,,
3344785,R,131726,,Chaim Kropack,1970,1970,Squamata,Hydrophiidae,Pelamis,platurus,,3027359,,,,,,,,,,,,,,,,,,North America,,Panama,,,,,,,,Bay of Panama,,,,,,,,
3344787,R,131727,,Chaim Kropack,1970,1970,Squamata,Hydrophiidae,Pelamis,platurus,,3027359,,,,,,,,,,,,,,,,,,North America,,Panama,,,,,,,,Bay of Panama,,,,,,,,
3344789,R,131728,,Chaim Kropack,1970,1970,Squamata,Hydrophiidae,Pelamis,platurus,,3027359,,,,,,,,,,,,,,,,,,North America,,Panama,,,,,,,,Bay of Panama,,,,,,,,
3344791,R,131729,,Chaim Kropack,1970,1970,Squamata,Hydrophiidae,Pelamis,platurus,,3027359,,,,,,,,,,,,,,,,,,North America,,Panama,,,,,,,,Bay of Panama,,,,,,,,
3344793,R,131730,,Chaim Kropack,1970,1970,Squamata,Hydrophiidae,Pelamis,platurus,,3027359,,,,,,,,,,,,,,,,,,North America,,Panama,,,,,,,,Bay of Panama,,,,,,,,
3344795,R,131731,,Chaim Kropack,1970,1970,Squamata,Hydrophiidae,Pelamis,platurus,,3027359,,,,,,,,,,,,,,,,,,North America,,Panama,,,,,,,,Bay of Panama,,,,,,,,
3344797,R,131732,,Chaim Kropack,1970,1970,Squamata,Hydrophiidae,Pelamis,platurus,,3027359,,,,,,,,,,,,,,,,,,North America,,Panama,,,,,,,,Bay of Panama,,,,,,,,
3344799,R,131733,,Chaim Kropack,1970,1970,Squamata,Hydrophiidae,Pelamis,platurus,,3027359,,,,,,,,,,,,,,,,,,North America,,Panama,,,,,,,,Bay of Panama,,,,,,,,
3344801,R,131734,,Chaim Kropack,1970,1970,Squamata,Hydrophiidae,Pelamis,platurus,,3027359,,,,,,,,,,,,,,,,,,North America,,Panama,,,,,,,,Bay of Panama,,,,,,,,
3344803,R,131735,,Chaim Kropack,1970,1970,Squamata,Hydrophiidae,Pelamis,platurus,,3027359,,,,,,,,,,,,,,,,,,North America,,Panama,,,,,,,,Bay of Panama,,,,,,,,
3344805,R,131736,,Chaim Kropack,1970,1970,Squamata,Hydrophiidae,Pelamis,platurus,,3027359,,,,,,,,,,,,,,,,,,North America,,Panama,,,,,,,,Bay of Panama,,,,,,,,
3344827,R,131747,,Chaim Kropack,1971,1971,Squamata,Hydrophiidae,Pelamis,platurus,,3027359,,,,,,,,,,,,,,,,,,North America,,Panama,,,,,,,,Bay of Panama,,,,,,,,
3344529,R,131598,,Chaim Kropack,1970,1970,Squamata,Hydrophiidae,Pelamis,platurus,,3027359,,,,,,,,,,,,,,,,,,North America,,Panama,,,,,,,,Bay of Panama,,,,,,,,
3344531,R,131599,,Chaim Kropack,1970,1970,Squamata,Hydrophiidae,Pelamis,platurus,,3027359,,,,,,,,,,,,,,,,,,North America,,Panama,,,,,,,,Bay of Panama,,,,,,,,
3344533,R,131600,,Chaim Kropack,1970,1970,Squamata,Hydrophiidae,Pelamis,platurus,,3027359,,,,,,,,,,,,,,,,,,North America,,Panama,,,,,,,,Bay of Panama,,,,,,,,
3344535,R,131601,,Chaim Kropack,1970,1970,Squamata,Hydrophiidae,Pelamis,platurus,,3027359,,,,,,,,,,,,,,,,,,North America,,Panama,,,,,,,,Bay of Panama,,,,,,,,
3344537,R,131602,,Chaim Kropack,1970,1970,Squamata,Hydrophiidae,Pelamis,platurus,,3027359,,,,,,,,,,,,,,,,,,North America,,Panama,,,,,,,,Bay of Panama,,,,,,,,
3344539,R,131603,,Chaim Kropack,1970,1970,Squamata,Hydrophiidae,Pelamis,platurus,,3027359,,,,,,,,,,,,,,,,,,North America,,Panama,,,,,,,,Bay of Panama,,,,,,,,
3344541,R,131604,,Chaim Kropack,1970,1970,Squamata,Hydrophiidae,Pelamis,platurus,,3027359,,,,,,,,,,,,,,,,,,North America,,Panama,,,,,,,,Bay of Panama,,,,,,,,
3344543,R,131605,,Chaim Kropack,1970,1970,Squamata,Hydrophiidae,Pelamis,platurus,,3027359,,,,,,,,,,,,,,,,,,North America,,Panama,,,,,,,,Bay of Panama,,,,,,,,
3344545,R,131606,,Chaim Kropack,1970,1970,Squamata,Hydrophiidae,Pelamis,platurus,,3027359,,,,,,,,,,,,,,,,,,North America,,Panama,,,,,,,,Bay of Panama,,,,,,,,
3344559,R,131613,,Chaim Kropack,1970,1970,Squamata,Hydrophiidae,Pelamis,platurus,,3027359,,,,,,,,,,,,,,,,,,North America,,Panama,,,,,,,,Bay of Panama,,,,,,,,
3344561,R,131614,,Chaim Kropack,1970,1970,Squamata,Hydrophiidae,Pelamis,platurus,,3027359,,,,,,,,,,,,,,,,,,North America,,Panama,,,,,,,,Bay of Panama,,,,,,,,
3344563,R,131615,,Chaim Kropack,1970,1970,Squamata,Hydrophiidae,Pelamis,platurus,,3027359,,,,,,,,,,,,,,,,,,North America,,Panama,,,,,,,,Bay of Panama,,,,,,,,
3344565,R,131616,,Chaim Kropack,1970,1970,Squamata,Hydrophiidae,Pelamis,platurus,,3027359,,,,,,,,,,,,,,,,,,North America,,Panama,,,,,,,,Bay of Panama,,,,,,,,
3344567,R,131617,,Chaim Kropack,1970,1970,Squamata,Hydrophiidae,Pelamis,platurus,,3027359,,,,,,,,,,,,,,,,,,North America,,Panama,,,,,,,,Bay of Panama,,,,,,,,
3344569,R,131618,,Chaim Kropack,1970,1970,Squamata,Hydrophiidae,Pelamis,platurus,,3027359,,,,,,,,,,,,,,,,,,North America,,Panama,,,,,,,,Bay of Panama,,,,,,,,
3344571,R,131619,,Chaim Kropack,1970,1970,Squamata,Hydrophiidae,Pelamis,platurus,,3027359,,,,,,,,,,,,,,,,,,North America,,Panama,,,,,,,,Bay of Panama,,,,,,,,
3344575,R,131621,,Chaim Kropack,1970,1970,Squamata,Hydrophiidae,Pelamis,platurus,,3027359,,,,,,,,,,,,,,,,,,North America,,Panama,,,,,,,,Bay of Panama,,,,,,,,
3344577,R,131622,,Chaim Kropack,1970,1970,Squamata,Hydrophiidae,Pelamis,platurus,,3027359,,,,,,,,,,,,,,,,,,North America,,Panama,,,,,,,,Bay of Panama,,,,,,,,
3344579,R,131623,,Chaim Kropack,1970,1970,Squamata,Hydrophiidae,Pelamis,platurus,,3027359,,,,,,,,,,,,,,,,,,North America,,Panama,,,,,,,,Bay of Panama,,,,,,,,
3344581,R,131624,,Chaim Kropack,1970,1970,Squamata,Hydrophiidae,Pelamis,platurus,,3027359,,,,,,,,,,,,,,,,,,North America,,Panama,,,,,,,,Bay of Panama,,,,,,,,
3344583,R,131625,,Chaim Kropack,1970,1970,Squamata,Hydrophiidae,Pelamis,platurus,,3027359,,,,,,,,,,,,,,,,,,North America,,Panama,,,,,,,,Bay of Panama,,,,,,,,
3344585,R,131626,,Chaim Kropack,1970,1970,Squamata,Hydrophiidae,Pelamis,platurus,,3027359,,,,,,,,,,,,,,,,,,North America,,Panama,,,,,,,,Bay of Panama,,,,,,,,
3344587,R,131627,,Chaim Kropack,1970,1970,Squamata,Hydrophiidae,Pelamis,platurus,,3027359,,,,,,,,,,,,,,,,,,North America,,Panama,,,,,,,,Bay of Panama,,,,,,,,
3344589,R,131628,,Chaim Kropack,1970,1970,Squamata,Hydrophiidae,Pelamis,platurus,,3027359,,,,,,,,,,,,,,,,,,North America,,Panama,,,,,,,,Bay of Panama,,,,,,,,
3344591,R,131629,,Chaim Kropack,1970,1970,Squamata,Hydrophiidae,Pelamis,platurus,,3027359,,,,,,,,,,,,,,,,,,North America,,Panama,,,,,,,,Bay of Panama,,,,,,,,
3344593,R,131630,,Chaim Kropack,1970,1970,Squamata,Hydrophiidae,Pelamis,platurus,,3027359,,,,,,,,,,,,,,,,,,North America,,Panama,,,,,,,,Bay of Panama,,,,,,,,
3344595,R,131631,,Chaim Kropack,1970,1970,Squamata,Hydrophiidae,Pelamis,platurus,,3027359,,,,,,,,,,,,,,,,,,North America,,Panama,,,,,,,,Bay of Panama,,,,,,,,
3344597,R,131632,,Chaim Kropack,1970,1970,Squamata,Hydrophiidae,Pelamis,platurus,,3027359,,,,,,,,,,,,,,,,,,North America,,Panama,,,,,,,,Bay of Panama,,,,,,,,
3344599,R,131633,,Chaim Kropack,1970,1970,Squamata,Hydrophiidae,Pelamis,platurus,,3027359,,,,,,,,,,,,,,,,,,North America,,Panama,,,,,,,,Bay of Panama,,,,,,,,
3344601,R,131634,,Chaim Kropack,1970,1970,Squamata,Hydrophiidae,Pelamis,platurus,,3027359,,,,,,,,,,,,,,,,,,North America,,Panama,,,,,,,,Bay of Panama,,,,,,,,
3344603,R,131635,,Chaim Kropack,1970,1970,Squamata,Hydrophiidae,Pelamis,platurus,,3027359,,,,,,,,,,,,,,,,,,North America,,Panama,,,,,,,,Bay of Panama,,,,,,,,
3344605,R,131636,,Chaim Kropack,1970,1970,Squamata,Hydrophiidae,Pelamis,platurus,,3027359,,,,,,,,,,,,,,,,,,North America,,Panama,,,,,,,,Bay of Panama,,,,,,,,
3344607,R,131637,,Chaim Kropack,1970,1970,Squamata,Hydrophiidae,Pelamis,platurus,,3027359,,,,,,,,,,,,,,,,,,North America,,Panama,,,,,,,,Bay of Panama,,,,,,,,
3344609,R,131638,,Chaim Kropack,1970,1970,Squamata,Hydrophiidae,Pelamis,platurus,,3027359,,,,,,,,,,,,,,,,,,North America,,Panama,,,,,,,,Bay of Panama,,,,,,,,
3344611,R,131639,,Chaim Kropack,1970,1970,Squamata,Hydrophiidae,Pelamis,platurus,,3027359,,,,,,,,,,,,,,,,,,North America,,Panama,,,,,,,,Bay of Panama,,,,,,,,
3344613,R,131640,,Chaim Kropack,1970,1970,Squamata,Hydrophiidae,Pelamis,platurus,,3027359,,,,,,,,,,,,,,,,,,North America,,Panama,,,,,,,,Bay of Panama,,,,,,,,
3344615,R,131641,,Chaim Kropack,1970,1970,Squamata,Hydrophiidae,Pelamis,platurus,,3027359,,,,,,,,,,,,,,,,,,North America,,Panama,,,,,,,,Bay of Panama,,,,,,,,
3344617,R,131642,,Chaim Kropack,1970,1970,Squamata,Hydrophiidae,Pelamis,platurus,,3027359,,,,,,,,,,,,,,,,,,North America,,Panama,,,,,,,,Bay of Panama,,,,,,,,
3344627,R,131647,,Chaim Kropack,1970,1970,Squamata,Hydrophiidae,Pelamis,platurus,,3027359,,,,,,,,,,,,,,,,,,North America,,Panama,,,,,,,,Bay of Panama,,,,,,,,
3344629,R,131648,,Chaim Kropack,1971,1971,Squamata,Hydrophiidae,Pelamis,platurus,,3027359,,,,,,,,,,,,,,,,,,North America,,Panama,,,,,,,,Bay of Panama,,,,,,,,
3344631,R,131649,,Chaim Kropack,1971,1971,Squamata,Hydrophiidae,Pelamis,platurus,,3027359,,,,,,,,,,,,,,,,,,North America,,Panama,,,,,,,,Bay of Panama,,,,,,,,
3344635,R,131651,,Chaim Kropack,1970,1970,Squamata,Hydrophiidae,Pelamis,platurus,,3027359,,,,,,,,,,,,,,,,,,North America,,Panama,,,,,,,,Bay of Panama,,,,,,,,
3344637,R,131652,,Chaim Kropack,1970,1970,Squamata,Hydrophiidae,Pelamis,platurus,,3027359,,,,,,,,,,,,,,,,,,North America,,Panama,,,,,,,,Bay of Panama,,,,,,,,
3344639,R,131653,,Chaim Kropack,1970,1970,Squamata,Hydrophiidae,Pelamis,platurus,,3027359,,,,,,,,,,,,,,,,,,North America,,Panama,,,,,,,,Bay of Panama,,,,,,,,
3344641,R,131654,,Chaim Kropack,1970,1970,Squamata,Hydrophiidae,Pelamis,platurus,,3027359,,,,,,,,,,,,,,,,,,North America,,Panama,,,,,,,,Bay of Panama,,,,,,,,
3344643,R,131655,,Chaim Kropack,1970,1970,Squamata,Hydrophiidae,Pelamis,platurus,,3027359,,,,,,,,,,,,,,,,,,North America,,Panama,,,,,,,,Bay of Panama,,,,,,,,
3344645,R,131656,,Chaim Kropack,1970,1970,Squamata,Hydrophiidae,Pelamis,platurus,,3027359,,,,,,,,,,,,,,,,,,North America,,Panama,,,,,,,,Bay of Panama,,,,,,,,
3344647,R,131657,,Chaim Kropack,1970,1970,Squamata,Hydrophiidae,Pelamis,platurus,,3027359,,,,,,,,,,,,,,,,,,North America,,Panama,,,,,,,,Bay of Panama,,,,,,,,
3344649,R,131658,,Chaim Kropack,1970,1970,Squamata,Hydrophiidae,Pelamis,platurus,,3027359,,,,,,,,,,,,,,,,,,North America,,Panama,,,,,,,,Bay of Panama,,,,,,,,
3344625,R,131646,,Chaim Kropack,1970-10-,1970-10-,Squamata,Hydrophiidae,Pelamis,platurus,,3027359,,,,,,,,,,,,,,,,,,North America,,Panama,,,,,,,,Bay of Panama,,,,,,,,
3344573,R,131620,,Chaim Kropack,1970-01-15,1970-01-15,Squamata,Hydrophiidae,Pelamis,platurus,,3027359,,,,,,,,,,,,,,,,,,North America,,Panama,,,,,,,,Bay of Panama,,,,,,,,
3344633,R,131650,,Chaim Kropack,1970-08-15,1970-08-15,Squamata,Hydrophiidae,Pelamis,platurus,,3027359,,,,,,,,,,,,,,,,,,North America,,Panama,,,,,,,,Bay of Panama,,,,,,,,
3344661,R,131664,,Chaim Kropack,1970-01-14,1970-01-14,Squamata,Hydrophiidae,Pelamis,platurus,,3027359,,,,,,,,,,,,,,,,,,North America,,Panama,,,,,,,,Bay of Panama,,,,,,,,
3344829,R,131748,,Chaim Kropack,,,Squamata,Hydrophiidae,Pelamis,platurus,,3027359,,,,,,,,,,,,,,,,,,North America,,Panama,,,,,,,,Bay of Panama,,,,,,,,
3344823,R,131745,,Chaim Kropack,1970,1970,Squamata,Hydrophiidae,Pelamis,platurus,,3027359,,,,,,,,,,,,,,,,,,North America,,Panama,,,,,,,,Bay of Panama,,,,,,,,
3344651,R,131659,,Chaim Kropack,1970,1970,Squamata,Hydrophiidae,Pelamis,platurus,,3027359,,,,,,,,,,,,,,,,,,North America,,Panama,,,,,,,,Bay of Panama,,,,,,,,
3344653,R,131660,,Chaim Kropack,1970,1970,Squamata,Hydrophiidae,Pelamis,platurus,,3027359,,,,,,,,,,,,,,,,,,North America,,Panama,,,,,,,,Bay of Panama,,,,,,,,
3344655,R,131661,,Chaim Kropack,1970,1970,Squamata,Hydrophiidae,Pelamis,platurus,,3027359,,,,,,,,,,,,,,,,,,North America,,Panama,,,,,,,,Bay of Panama,,,,,,,,
3344657,R,131662,,Chaim Kropack,1970,1970,Squamata,Hydrophiidae,Pelamis,platurus,,3027359,,,,,,,,,,,,,,,,,,North America,,Panama,,,,,,,,Bay of Panama,,,,,,,,
3344659,R,131663,,Chaim Kropack,1970,1970,Squamata,Hydrophiidae,Pelamis,platurus,,3027359,,,,,,,,,,,,,,,,,,North America,,Panama,,,,,,,,Bay of Panama,,,,,,,,
3344663,R,131665,,Chaim Kropack,1970,1970,Squamata,Hydrophiidae,Pelamis,platurus,,3027359,,,,,,,,,,,,,,,,,,North America,,Panama,,,,,,,,Bay of Panama,,,,,,,,
3344665,R,131666,,Chaim Kropack,1970,1970,Squamata,Hydrophiidae,Pelamis,platurus,,3027359,,,,,,,,,,,,,,,,,,North America,,Panama,,,,,,,,Bay of Panama,,,,,,,,
3344667,R,131667,,Chaim Kropack,1970,1970,Squamata,Hydrophiidae,Pelamis,platurus,,3027359,,,,,,,,,,,,,,,,,,North America,,Panama,,,,,,,,Bay of Panama,,,,,,,,
3344669,R,131668,,Chaim Kropack,1970,1970,Squamata,Hydrophiidae,Pelamis,platurus,,3027359,,,,,,,,,,,,,,,,,,North America,,Panama,,,,,,,,Bay of Panama,,,,,,,,
3344671,R,131669,,Chaim Kropack,1970,1970,Squamata,Hydrophiidae,Pelamis,platurus,,3027359,,,,,,,,,,,,,,,,,,North America,,Panama,,,,,,,,Bay of Panama,,,,,,,,
3344675,R,131671,,Chaim Kropack,1970,1970,Squamata,Hydrophiidae,Pelamis,platurus,,3027359,,,,,,,,,,,,,,,,,,North America,,Panama,,,,,,,,Bay of Panama,,,,,,,,
3344681,R,131674,,Chaim Kropack,1970,1970,Squamata,Hydrophiidae,Pelamis,platurus,,3027359,,,,,,,,,,,,,,,,,,North America,,Panama,,,,,,,,Bay of Panama,,,,,,,,
3344683,R,131675,,Chaim Kropack,1970,1970,Squamata,Hydrophiidae,Pelamis,platurus,,3027359,,,,,,,,,,,,,,,,,,North America,,Panama,,,,,,,,Bay of Panama,,,,,,,,
3344685,R,131676,,Chaim Kropack,1970,1970,Squamata,Hydrophiidae,Pelamis,platurus,,3027359,,,,,,,,,,,,,,,,,,North America,,Panama,,,,,,,,Bay of Panama,,,,,,,,
3344687,R,131677,,Chaim Kropack,1970,1970,Squamata,Hydrophiidae,Pelamis,platurus,,3027359,,,,,,,,,,,,,,,,,,North America,,Panama,,,,,,,,Bay of Panama,,,,,,,,
3344689,R,131678,,Chaim Kropack,1970,1970,Squamata,Hydrophiidae,Pelamis,platurus,,3027359,,,,,,,,,,,,,,,,,,North America,,Panama,,,,,,,,Bay of Panama,,,,,,,,
3344691,R,131679,,Chaim Kropack,1970,1970,Squamata,Hydrophiidae,Pelamis,platurus,,3027359,,,,,,,,,,,,,,,,,,North America,,Panama,,,,,,,,Bay of Panama,,,,,,,,
3344693,R,131680,,Chaim Kropack,1970,1970,Squamata,Hydrophiidae,Pelamis,platurus,,3027359,,,,,,,,,,,,,,,,,,North America,,Panama,,,,,,,,Bay of Panama,,,,,,,,
3344695,R,131681,,Chaim Kropack,1970,1970,Squamata,Hydrophiidae,Pelamis,platurus,,3027359,,,,,,,,,,,,,,,,,,North America,,Panama,,,,,,,,Bay of Panama,,,,,,,,
3344697,R,131682,,Chaim Kropack,1970,1970,Squamata,Hydrophiidae,Pelamis,platurus,,3027359,,,,,,,,,,,,,,,,,,North America,,Panama,,,,,,,,Bay of Panama,,,,,,,,
3344699,R,131683,,Chaim Kropack,1970,1970,Squamata,Hydrophiidae,Pelamis,platurus,,3027359,,,,,,,,,,,,,,,,,,North America,,Panama,,,,,,,,Bay of Panama,,,,,,,,
3344701,R,131684,,Chaim Kropack,1970,1970,Squamata,Hydrophiidae,Pelamis,platurus,,3027359,,,,,,,,,,,,,,,,,,North America,,Panama,,,,,,,,Bay of Panama,,,,,,,,
3344703,R,131685,,Chaim Kropack,1970,1970,Squamata,Hydrophiidae,Pelamis,platurus,,3027359,,,,,,,,,,,,,,,,,,North America,,Panama,,,,,,,,Bay of Panama,,,,,,,,
3344705,R,131686,,Chaim Kropack,1970,1970,Squamata,Hydrophiidae,Pelamis,platurus,,3027359,,,,,,,,,,,,,,,,,,North America,,Panama,,,,,,,,Bay of Panama,,,,,,,,
3344707,R,131687,,Chaim Kropack,1970,1970,Squamata,Hydrophiidae,Pelamis,platurus,,3027359,,,,,,,,,,,,,,,,,,North America,,Panama,,,,,,,,Bay of Panama,,,,,,,,
3344709,R,131688,,Chaim Kropack,1970,1970,Squamata,Hydrophiidae,Pelamis,platurus,,3027359,,,,,,,,,,,,,,,,,,North America,,Panama,,,,,,,,Bay of Panama,,,,,,,,
3344711,R,131689,,Chaim Kropack,1970,1970,Squamata,Hydrophiidae,Pelamis,platurus,,3027359,,,,,,,,,,,,,,,,,,North America,,Panama,,,,,,,,Bay of Panama,,,,,,,,
3344713,R,131690,,Chaim Kropack,1970,1970,Squamata,Hydrophiidae,Pelamis,platurus,,3027359,,,,,,,,,,,,,,,,,,North America,,Panama,,,,,,,,Bay of Panama,,,,,,,,
3344715,R,131691,,Chaim Kropack,1970,1970,Squamata,Hydrophiidae,Pelamis,platurus,,3027359,,,,,,,,,,,,,,,,,,North America,,Panama,,,,,,,,Bay of Panama,,,,,,,,
3344717,R,131692,,Chaim Kropack,1970,1970,Squamata,Hydrophiidae,Pelamis,platurus,,3027359,,,,,,,,,,,,,,,,,,North America,,Panama,,,,,,,,Bay of Panama,,,,,,,,
3344719,R,131693,,Chaim Kropack,1970,1970,Squamata,Hydrophiidae,Pelamis,platurus,,3027359,,,,,,,,,,,,,,,,,,North America,,Panama,,,,,,,,Bay of Panama,,,,,,,,
3344721,R,131694,,Chaim Kropack,1970,1970,Squamata,Hydrophiidae,Pelamis,platurus,,3027359,,,,,,,,,,,,,,,,,,North America,,Panama,,,,,,,,Bay of Panama,,,,,,,,
3344723,R,131695,,Chaim Kropack,1970,1970,Squamata,Hydrophiidae,Pelamis,platurus,,3027359,,,,,,,,,,,,,,,,,,North America,,Panama,,,,,,,,Bay of Panama,,,,,,,,
3344725,R,131696,,Chaim Kropack,1970,1970,Squamata,Hydrophiidae,Pelamis,platurus,,3027359,,,,,,,,,,,,,,,,,,North America,,Panama,,,,,,,,Bay of Panama,,,,,,,,
3344729,R,131698,,Chaim Kropack,1970,1970,Squamata,Hydrophiidae,Pelamis,platurus,,3027359,,,,,,,,,,,,,,,,,,North America,,Panama,,,,,,,,Bay of Panama,,,,,,,,
3344733,R,131700,,Chaim Kropack,1970,1970,Squamata,Hydrophiidae,Pelamis,platurus,,3027359,,,,,,,,,,,,,,,,,,North America,,Panama,,,,,,,,Bay of Panama,,,,,,,,
3344739,R,131703,,Chaim Kropack,1970,1970,Squamata,Hydrophiidae,Pelamis,platurus,,3027359,,,,,,,,,,,,,,,,,,North America,,Panama,,,,,,,,Bay of Panama,,,,,,,,
3344741,R,131704,,Chaim Kropack,1970,1970,Squamata,Hydrophiidae,Pelamis,platurus,,3027359,,,,,,,,,,,,,,,,,,North America,,Panama,,,,,,,,Bay of Panama,,,,,,,,
3344747,R,131707,,Chaim Kropack,1970,1970,Squamata,Hydrophiidae,Pelamis,platurus,,3027359,,,,,,,,,,,,,,,,,,North America,,Panama,,,,,,,,Bay of Panama,,,,,,,,
3344751,R,131709,,Chaim Kropack,1970,1970,Squamata,Hydrophiidae,Pelamis,platurus,,3027359,,,,,,,,,,,,,,,,,,North America,,Panama,,,,,,,,Bay of Panama,,,,,,,,
3344755,R,131711,,Chaim Kropack,1970,1970,Squamata,Hydrophiidae,Pelamis,platurus,,3027359,,,,,,,,,,,,,,,,,,North America,,Panama,,,,,,,,Bay of Panama,,,,,,,,
3344757,R,131712,,Chaim Kropack,1970,1970,Squamata,Hydrophiidae,Pelamis,platurus,,3027359,,,,,,,,,,,,,,,,,,North America,,Panama,,,,,,,,Bay of Panama,,,,,,,,
3344759,R,131713,,Chaim Kropack,1970,1970,Squamata,Hydrophiidae,Pelamis,platurus,,3027359,,,,,,,,,,,,,,,,,,North America,,Panama,,,,,,,,Bay of Panama,,,,,,,,
3344761,R,131714,,Chaim Kropack,1970,1970,Squamata,Hydrophiidae,Pelamis,platurus,,3027359,,,,,,,,,,,,,,,,,,North America,,Panama,,,,,,,,Bay of Panama,,,,,,,,
3344621,R,131644,,Chaim Kropack,1970-10-,1970-10-,Squamata,Hydrophiidae,Pelamis,platurus,,3027359,,,,,,,,,,,,,,,,,,North America,,Panama,,,,,,,,Bay of Panama,,,,,,,,
3344427,R,131547,,Chaim Kropack,1970,1970,Squamata,Hydrophiidae,Pelamis,platurus,,3027359,,,,,,,,,,,,,,,,,,North America,,Panama,,,,,,,,Bay of Panama,,,,,,,,
3344429,R,131548,,Chaim Kropack,1970,1970,Squamata,Hydrophiidae,Pelamis,platurus,,3027359,,,,,,,,,,,,,,,,,,North America,,Panama,,,,,,,,Bay of Panama,,,,,,,,
3344431,R,131549,,Chaim Kropack,1970,1970,Squamata,Hydrophiidae,Pelamis,platurus,,3027359,,,,,,,,,,,,,,,,,,North America,,Panama,,,,,,,,Bay of Panama,,,,,,,,
3344433,R,131550,,Chaim Kropack,1970,1970,Squamata,Hydrophiidae,Pelamis,platurus,,3027359,,,,,,,,,,,,,,,,,,North America,,Panama,,,,,,,,Bay of Panama,,,,,,,,
3344435,R,131551,,Chaim Kropack,1970,1970,Squamata,Hydrophiidae,Pelamis,platurus,,3027359,,,,,,,,,,,,,,,,,,North America,,Panama,,,,,,,,Bay of Panama,,,,,,,,
3344437,R,131552,,Chaim Kropack,1970,1970,Squamata,Hydrophiidae,Pelamis,platurus,,3027359,,,,,,,,,,,,,,,,,,North America,,Panama,,,,,,,,Bay of Panama,,,,,,,,
3344439,R,131553,,Chaim Kropack,1970,1970,Squamata,Hydrophiidae,Pelamis,platurus,,3027359,,,,,,,,,,,,,,,,,,North America,,Panama,,,,,,,,Bay of Panama,,,,,,,,
3344441,R,131554,,Chaim Kropack,1970,1970,Squamata,Hydrophiidae,Pelamis,platurus,,3027359,,,,,,,,,,,,,,,,,,North America,,Panama,,,,,,,,Bay of Panama,,,,,,,,
3344443,R,131555,,Chaim Kropack,1970,1970,Squamata,Hydrophiidae,Pelamis,platurus,,3027359,,,,,,,,,,,,,,,,,,North America,,Panama,,,,,,,,Bay of Panama,,,,,,,,
3344445,R,131556,,Chaim Kropack,1970,1970,Squamata,Hydrophiidae,Pelamis,platurus,,3027359,,,,,,,,,,,,,,,,,,North America,,Panama,,,,,,,,Bay of Panama,,,,,,,,
3344447,R,131557,,Chaim Kropack,1970,1970,Squamata,Hydrophiidae,Pelamis,platurus,,3027359,,,,,,,,,,,,,,,,,,North America,,Panama,,,,,,,,Bay of Panama,,,,,,,,
3344449,R,131558,,Chaim Kropack,1970,1970,Squamata,Hydrophiidae,Pelamis,platurus,,3027359,,,,,,,,,,,,,,,,,,North America,,Panama,,,,,,,,Bay of Panama,,,,,,,,
3344451,R,131559,,Chaim Kropack,1970,1970,Squamata,Hydrophiidae,Pelamis,platurus,,3027359,,,,,,,,,,,,,,,,,,North America,,Panama,,,,,,,,Bay of Panama,,,,,,,,
3344453,R,131560,,Chaim Kropack,1970,1970,Squamata,Hydrophiidae,Pelamis,platurus,,3027359,,,,,,,,,,,,,,,,,,North America,,Panama,,,,,,,,Bay of Panama,,,,,,,,
3344455,R,131561,,Chaim Kropack,1970,1970,Squamata,Hydrophiidae,Pelamis,platurus,,3027359,,,,,,,,,,,,,,,,,,North America,,Panama,,,,,,,,Bay of Panama,,,,,,,,
3344457,R,131562,,Chaim Kropack,1970,1970,Squamata,Hydrophiidae,Pelamis,platurus,,3027359,,,,,,,,,,,,,,,,,,North America,,Panama,,,,,,,,Bay of Panama,,,,,,,,
3344459,R,131563,,Chaim Kropack,1970,1970,Squamata,Hydrophiidae,Pelamis,platurus,,3027359,,,,,,,,,,,,,,,,,,North America,,Panama,,,,,,,,Bay of Panama,,,,,,,,
3344461,R,131564,,Chaim Kropack,1970,1970,Squamata,Hydrophiidae,Pelamis,platurus,,3027359,,,,,,,,,,,,,,,,,,North America,,Panama,,,,,,,,Bay of Panama,,,,,,,,
3344463,R,131565,,Chaim Kropack,1970,1970,Squamata,Hydrophiidae,Pelamis,platurus,,3027359,,,,,,,,,,,,,,,,,,North America,,Panama,,,,,,,,Bay of Panama,,,,,,,,
3344465,R,131566,,Chaim Kropack,1970,1970,Squamata,Hydrophiidae,Pelamis,platurus,,3027359,,,,,,,,,,,,,,,,,,North America,,Panama,,,,,,,,Bay of Panama,,,,,,,,
3344467,R,131567,,Chaim Kropack,1970,1970,Squamata,Hydrophiidae,Pelamis,platurus,,3027359,,,,,,,,,,,,,,,,,,North America,,Panama,,,,,,,,Bay of Panama,,,,,,,,
3344469,R,131568,,Chaim Kropack,1970,1970,Squamata,Hydrophiidae,Pelamis,platurus,,3027359,,,,,,,,,,,,,,,,,,North America,,Panama,,,,,,,,Bay of Panama,,,,,,,,
3344471,R,131569,,Chaim Kropack,1970,1970,Squamata,Hydrophiidae,Pelamis,platurus,,3027359,,,,,,,,,,,,,,,,,,North America,,Panama,,,,,,,,Bay of Panama,,,,,,,,
3344473,R,131570,,Chaim Kropack,1970,1970,Squamata,Hydrophiidae,Pelamis,platurus,,3027359,,,,,,,,,,,,,,,,,,North America,,Panama,,,,,,,,Bay of Panama,,,,,,,,
3344475,R,131571,,Chaim Kropack,1970,1970,Squamata,Hydrophiidae,Pelamis,platurus,,3027359,,,,,,,,,,,,,,,,,,North America,,Panama,,,,,,,,Bay of Panama,,,,,,,,
3344477,R,131572,,Chaim Kropack,1970,1970,Squamata,Hydrophiidae,Pelamis,platurus,,3027359,,,,,,,,,,,,,,,,,,North America,,Panama,,,,,,,,Bay of Panama,,,,,,,,
3344479,R,131573,,Chaim Kropack,1970,1970,Squamata,Hydrophiidae,Pelamis,platurus,,3027359,,,,,,,,,,,,,,,,,,North America,,Panama,,,,,,,,Bay of Panama,,,,,,,,
3344481,R,131574,,Chaim Kropack,1970,1970,Squamata,Hydrophiidae,Pelamis,platurus,,3027359,,,,,,,,,,,,,,,,,,North America,,Panama,,,,,,,,Bay of Panama,,,,,,,,
3344483,R,131575,,Chaim Kropack,1970,1970,Squamata,Hydrophiidae,Pelamis,platurus,,3027359,,,,,,,,,,,,,,,,,,North America,,Panama,,,,,,,,Bay of Panama,,,,,,,,
3344485,R,131576,,Chaim Kropack,1970,1970,Squamata,Hydrophiidae,Pelamis,platurus,,3027359,,,,,,,,,,,,,,,,,,North America,,Panama,,,,,,,,Bay of Panama,,,,,,,,
3344489,R,131578,,Chaim Kropack,1968,1968,Squamata,Hydrophiidae,Pelamis,platurus,,3027359,,,,,,,,,,,,,,,,,,North America,,Panama,,,,,,,,Bay of Panama,,,,,,,,
3344491,R,131579,,Chaim Kropack,1969,1969,Squamata,Hydrophiidae,Pelamis,platurus,,3027359,,,,,,,,,,,,,,,,,,North America,,Panama,,,,,,,,Bay of Panama,,,,,,,,
3344619,R,131643,,Chaim Kropack,1970-10-,1970-10-,Squamata,Hydrophiidae,Pelamis,platurus,,3027359,,,,,,,,,,,,,,,,,,North America,,Panama,,,,,,,,Bay of Panama,,,,,,,,
3344623,R,131645,,Chaim Kropack,1970-10-,1970-10-,Squamata,Hydrophiidae,Pelamis,platurus,,3027359,,,,,,,,,,,,,,,,,,North America,,Panama,,,,,,,,Bay of Panama,,,,,,,,
3344487,R,131577,,Chaim Kropack,1970,1970,Squamata,Hydrophiidae,Pelamis,platurus,,3027359,,,,,,,,,,,,,,,,,,North America,,Panama,,,,,,,,Bay of Panama,,,,,,,,
3344493,R,131580,,Chaim Kropack,1970,1970,Squamata,Hydrophiidae,Pelamis,platurus,,3027359,,,,,,,,,,,,,,,,,,North America,,Panama,,,,,,,,Bay of Panama,,,,,,,,
3344495,R,131581,,Chaim Kropack,1970,1970,Squamata,Hydrophiidae,Pelamis,platurus,,3027359,,,,,,,,,,,,,,,,,,North America,,Panama,,,,,,,,Bay of Panama,,,,,,,,
3344497,R,131582,,Chaim Kropack,1970,1970,Squamata,Hydrophiidae,Pelamis,platurus,,3027359,,,,,,,,,,,,,,,,,,North America,,Panama,,,,,,,,Bay of Panama,,,,,,,,
3344499,R,131583,,Chaim Kropack,1970,1970,Squamata,Hydrophiidae,Pelamis,platurus,,3027359,,,,,,,,,,,,,,,,,,North America,,Panama,,,,,,,,Bay of Panama,,,,,,,,
3344501,R,131584,,Chaim Kropack,1970,1970,Squamata,Hydrophiidae,Pelamis,platurus,,3027359,,,,,,,,,,,,,,,,,,North America,,Panama,,,,,,,,Bay of Panama,,,,,,,,
3344503,R,131585,,Chaim Kropack,1970,1970,Squamata,Hydrophiidae,Pelamis,platurus,,3027359,,,,,,,,,,,,,,,,,,North America,,Panama,,,,,,,,Bay of Panama,,,,,,,,
3344505,R,131586,,Chaim Kropack,1970,1970,Squamata,Hydrophiidae,Pelamis,platurus,,3027359,,,,,,,,,,,,,,,,,,North America,,Panama,,,,,,,,Bay of Panama,,,,,,,,
3344507,R,131587,,Chaim Kropack,1970,1970,Squamata,Hydrophiidae,Pelamis,platurus,,3027359,,,,,,,,,,,,,,,,,,North America,,Panama,,,,,,,,Bay of Panama,,,,,,,,
3344509,R,131588,,Chaim Kropack,1970,1970,Squamata,Hydrophiidae,Pelamis,platurus,,3027359,,,,,,,,,,,,,,,,,,North America,,Panama,,,,,,,,Bay of Panama,,,,,,,,
3344511,R,131589,,Chaim Kropack,1970,1970,Squamata,Hydrophiidae,Pelamis,platurus,,3027359,,,,,,,,,,,,,,,,,,North America,,Panama,,,,,,,,Bay of Panama,,,,,,,,
3344513,R,131590,,Chaim Kropack,1970,1970,Squamata,Hydrophiidae,Pelamis,platurus,,3027359,,,,,,,,,,,,,,,,,,North America,,Panama,,,,,,,,Bay of Panama,,,,,,,,
3344515,R,131591,,Chaim Kropack,1970,1970,Squamata,Hydrophiidae,Pelamis,platurus,,3027359,,,,,,,,,,,,,,,,,,North America,,Panama,,,,,,,,Bay of Panama,,,,,,,,
3344517,R,131592,,Chaim Kropack,1970,1970,Squamata,Hydrophiidae,Pelamis,platurus,,3027359,,,,,,,,,,,,,,,,,,North America,,Panama,,,,,,,,Bay of Panama,,,,,,,,
3344519,R,131593,,Chaim Kropack,1970,1970,Squamata,Hydrophiidae,Pelamis,platurus,,3027359,,,,,,,,,,,,,,,,,,North America,,Panama,,,,,,,,Bay of Panama,,,,,,,,
3344521,R,131594,,Chaim Kropack,1970,1970,Squamata,Hydrophiidae,Pelamis,platurus,,3027359,,,,,,,,,,,,,,,,,,North America,,Panama,,,,,,,,Bay of Panama,,,,,,,,
3344523,R,131595,,Chaim Kropack,1970,1970,Squamata,Hydrophiidae,Pelamis,platurus,,3027359,,,,,,,,,,,,,,,,,,North America,,Panama,,,,,,,,Bay of Panama,,,,,,,,
3344525,R,131596,,Chaim Kropack,1970,1970,Squamata,Hydrophiidae,Pelamis,platurus,,3027359,,,,,,,,,,,,,,,,,,North America,,Panama,,,,,,,,Bay of Panama,,,,,,,,
3344527,R,131597,,Chaim Kropack,1971-02-10,1971-02-10,Squamata,Hydrophiidae,Pelamis,platurus,,3027359,,,,,,,,,,,,,,,,,,North America,,Panama,,,,,,,,Bay of Panama,,,,,,,,
3344807,R,131737,,Chaim Kropack,1971-01-06,1971-01-06,Squamata,Hydrophiidae,Pelamis,platurus,,3027359,,,,,,,,,,,,,,,,,,North America,,Panama,,,,,,,,Bay of Panama,,,,,,,,
3344809,R,131738,,Chaim Kropack,1971-01-06,1971-01-06,Squamata,Hydrophiidae,Pelamis,platurus,,3027359,,,,,,,,,,,,,,,,,,North America,,Panama,,,,,,,,Bay of Panama,,,,,,,,
3344811,R,131739,,Chaim Kropack,1971-01-06,1971-01-06,Squamata,Hydrophiidae,Pelamis,platurus,,3027359,,,,,,,,,,,,,,,,,,North America,,Panama,,,,,,,,Bay of Panama,,,,,,,,
3344813,R,131740,,Chaim Kropack,1971-01-06,1971-01-06,Squamata,Hydrophiidae,Pelamis,platurus,,3027359,,,,,,,,,,,,,,,,,,North America,,Panama,,,,,,,,Bay of Panama,,,,,,,,
3344815,R,131741,,Chaim Kropack,1971-01-06,1971-01-06,Squamata,Hydrophiidae,Pelamis,platurus,,3027359,,,,,,,,,,,,,,,,,,North America,,Panama,,,,,,,,Bay of Panama,,,,,,,,
3344817,R,131742,,Chaim Kropack,1971-01-06,1971-01-06,Squamata,Hydrophiidae,Pelamis,platurus,,3027359,,,,,,,,,,,,,,,,,,North America,,Panama,,,,,,,,Bay of Panama,,,,,,,,
3344821,R,131744,,Chaim Kropack,1971-01-06,1971-01-06,Squamata,Hydrophiidae,Pelamis,platurus,,3027359,,,,,,,,,,,,,,,,,,North America,,Panama,,,,,,,,Bay of Panama,,,,,,,,
3344819,R,131743,,Chaim Kropack,1971-01-06,1971-01-06,Squamata,Hydrophiidae,Pelamis,platurus,,3027359,,,,,,,,,,,,,,,,,,North America,,Panama,,,,,,,,Bay of Panama,,,,,,,,
3344825,R,131746,,Chaim Kropack,1970,1970,Squamata,Hydrophiidae,Pelamis,platurus,,3027359,,,,,,,,,,,,,,,,,,North America,,Panama,,,,,,,,Bay of Panama,,,,,,,,
3344673,R,131670,,Chaim Kropack,1970,1970,Squamata,Hydrophiidae,Pelamis,platurus,,3027359,,,,,,,,,,,,,,,,,,North America,,Panama,,,,,,,,Bay of Panama,,,,,,,,
3344677,R,131672,,Chaim Kropack,1970,1970,Squamata,Hydrophiidae,Pelamis,platurus,,3027359,,,,,,,,,,,,,,,,,,North America,,Panama,,,,,,,,Bay of Panama,,,,,,,,
3344679,R,131673,,Chaim Kropack,1970,1970,Squamata,Hydrophiidae,Pelamis,platurus,,3027359,,,,,,,,,,,,,,,,,,North America,,Panama,,,,,,,,Bay of Panama,,,,,,,,
3344727,R,131697,,Chaim Kropack,1970,1970,Squamata,Hydrophiidae,Pelamis,platurus,,3027359,,,,,,,,,,,,,,,,,,North America,,Panama,,,,,,,,Bay of Panama,,,,,,,,
3344731,R,131699,,Chaim Kropack,1970,1970,Squamata,Hydrophiidae,Pelamis,platurus,,3027359,,,,,,,,,,,,,,,,,,North America,,Panama,,,,,,,,Bay of Panama,,,,,,,,
3344735,R,131701,,Chaim Kropack,1970,1970,Squamata,Hydrophiidae,Pelamis,platurus,,3027359,,,,,,,,,,,,,,,,,,North America,,Panama,,,,,,,,Bay of Panama,,,,,,,,
3344737,R,131702,,Chaim Kropack,1970,1970,Squamata,Hydrophiidae,Pelamis,platurus,,3027359,,,,,,,,,,,,,,,,,,North America,,Panama,,,,,,,,Bay of Panama,,,,,,,,
3344743,R,131705,,Chaim Kropack,1970,1970,Squamata,Hydrophiidae,Pelamis,platurus,,3027359,,,,,,,,,,,,,,,,,,North America,,Panama,,,,,,,,Bay of Panama,,,,,,,,
3344745,R,131706,,Chaim Kropack,1970,1970,Squamata,Hydrophiidae,Pelamis,platurus,,3027359,,,,,,,,,,,,,,,,,,North America,,Panama,,,,,,,,Bay of Panama,,,,,,,,
3344749,R,131708,,Chaim Kropack,1970,1970,Squamata,Hydrophiidae,Pelamis,platurus,,3027359,,,,,,,,,,,,,,,,,,North America,,Panama,,,,,,,,Bay of Panama,,,,,,,,
3344753,R,131710,,Chaim Kropack,1970,1970,Squamata,Hydrophiidae,Pelamis,platurus,,3027359,,,,,,,,,,,,,,,,,,North America,,Panama,,,,,,,,Bay of Panama,,,,,,,,
3344325,R,131496,,Chaim Kropack,1969-09-13,1969-09-13,Squamata,Hydrophiidae,Pelamis,platurus,,3027349,,,,,,,,,,,,,,,,,,North America,,Panama,,,,,,,Isla Pacheca,Bay of Panama,,,,,,,,
3344327,R,131497,,Chaim Kropack,1969-09-13,1969-09-13,Squamata,Hydrophiidae,Pelamis,platurus,,3027349,,,,,,,,,,,,,,,,,,North America,,Panama,,,,,,,Isla Pacheca,Bay of Panama,,,,,,,,
3344329,R,131498,,Chaim Kropack,1969-09-13,1969-09-13,Squamata,Hydrophiidae,Pelamis,platurus,,3027349,,,,,,,,,,,,,,,,,,North America,,Panama,,,,,,,Isla Pacheca,Bay of Panama,,,,,,,,
3344331,R,131499,,Chaim Kropack,1969-09-13,1969-09-13,Squamata,Hydrophiidae,Pelamis,platurus,,3027349,,,,,,,,,,,,,,,,,,North America,,Panama,,,,,,,Isla Pacheca,Bay of Panama,,,,,,,,
3344333,R,131500,,Chaim Kropack,1969-09-13,1969-09-13,Squamata,Hydrophiidae,Pelamis,platurus,,3027349,,,,,,,,,,,,,,,,,,North America,,Panama,,,,,,,Isla Pacheca,Bay of Panama,,,,,,,,
3344335,R,131501,,Chaim Kropack,1969-09-13,1969-09-13,Squamata,Hydrophiidae,Pelamis,platurus,,3027349,,,,,,,,,,,,,,,,,,North America,,Panama,,,,,,,Isla Pacheca,Bay of Panama,,,,,,,,
3344337,R,131502,,Chaim Kropack,1969-09-13,1969-09-13,Squamata,Hydrophiidae,Pelamis,platurus,,3027349,,,,,,,,,,,,,,,,,,North America,,Panama,,,,,,,Isla Pacheca,Bay of Panama,,,,,,,,
3344339,R,131503,,Chaim Kropack,1969-09-13,1969-09-13,Squamata,Hydrophiidae,Pelamis,platurus,,3027349,,,,,,,,,,,,,,,,,,North America,,Panama,,,,,,,Isla Pacheca,Bay of Panama,,,,,,,,
3344341,R,131504,,Chaim Kropack,1969-09-13,1969-09-13,Squamata,Hydrophiidae,Pelamis,platurus,,3027349,,,,,,,,,,,,,,,,,,North America,,Panama,,,,,,,Isla Pacheca,Bay of Panama,,,,,,,,
3344343,R,131505,,Chaim Kropack,1969-09-13,1969-09-13,Squamata,Hydrophiidae,Pelamis,platurus,,3027349,,,,,,,,,,,,,,,,,,North America,,Panama,,,,,,,Isla Pacheca,Bay of Panama,,,,,,,,
3344345,R,131506,,Chaim Kropack,1969-09-13,1969-09-13,Squamata,Hydrophiidae,Pelamis,platurus,,3027349,,,,,,,,,,,,,,,,,,North America,,Panama,,,,,,,Isla Pacheca,Bay of Panama,,,,,,,,
3391919,R,63566,,Robert C. Murphy,1941-05-22,1941-05-22,Squamata,Hydrophiidae,Pelamis,platurus,,3034116,,,,,,,,,,,,,,,,,,North America,,[Panama],,,,,,,"2 mi W of Pl Garachine, Gulf of Panama",,,,,,,,,
3344417,R,131542,,Chaim Kropack,1970-06-27,1970-06-27,Squamata,Hydrophiidae,Pelamis,platurus,,3027358,,,,,,,,,,,,,,,,,,North America,,Panama,,,,,,,between Isla Taboguilla and Isla Otoque,Bay of Panama,,,,,,,,
3344419,R,131543,,Chaim Kropack,1970-06-27,1970-06-27,Squamata,Hydrophiidae,Pelamis,platurus,,3027358,,,,,,,,,,,,,,,,,,North America,,Panama,,,,,,,between Isla Taboguilla and Isla Otoque,Bay of Panama,,,,,,,,
3344421,R,131544,,Chaim Kropack,1970-06-27,1970-06-27,Squamata,Hydrophiidae,Pelamis,platurus,,3027358,,,,,,,,,,,,,,,,,,North America,,Panama,,,,,,,between Isla Taboguilla and Isla Otoque,Bay of Panama,,,,,,,,
3344423,R,131545,,Chaim Kropack,1970-06-27,1970-06-27,Squamata,Hydrophiidae,Pelamis,platurus,,3027358,,,,,,,,,,,,,,,,,,North America,,Panama,,,,,,,between Isla Taboguilla and Isla Otoque,Bay of Panama,,,,,,,,
3344425,R,131546,,Chaim Kropack,1970-06-27,1970-06-27,Squamata,Hydrophiidae,Pelamis,platurus,,3027358,,,,,,,,,,,,,,,,,,North America,,Panama,,,,,,,between Isla Taboguilla and Isla Otoque,Bay of Panama,,,,,,,,
3344363,R,131515,,Chaim Kropack,1970-04-02,1970-04-02,Squamata,Hydrophiidae,Pelamis,platurus,,3027353,,,,,,,,,,,,,,,,,,North America,,Panama,,,,,,,"Western Panama, Isla Secas",,,,,,,,,
3564954,R,28395,,Ludlow Griscom,1924-04-10,1924-04-10,Squamata,Hydrophiidae,Pelamis,platurus,,3055895,,,,,,,,,,,,,,Yes,Yes,,,North America,,Panama,,,,,,,5 mi off mouth of Rio San Lorenzo [=Rio Grande],Veraguas,,,,,,,7.67,-81.30
3564956,R,28396,,Ludlow Griscom,1924-04-10,1924-04-10,Squamata,Hydrophiidae,Pelamis,platurus,,3055895,,,,,,,,,,,,,,Yes,Yes,,,North America,,Panama,,,,,,,5 mi off mouth of Rio San Lorenzo [=Rio Grande],Veraguas,,,,,,,7.67,-81.30
3564958,R,28397,,Ludlow Griscom,1924-04-10,1924-04-10,Squamata,Hydrophiidae,Pelamis,platurus,,3055895,,,,,,,,,,,,,,Yes,Yes,,,North America,,Panama,,,,,,,5 mi off mouth of Rio San Lorenzo [=Rio Grande],Veraguas,,,,,,,7.67,-81.30
3564964,R,28400,,Ludlow Griscom,1924-04-10,1924-04-10,Squamata,Hydrophiidae,Pelamis,platurus,,3055895,,,,,,,,,,,,,,Yes,Yes,,,North America,,Panama,,,,,,,5 mi off mouth of Rio San Lorenzo [=Rio Grande],Veraguas,,,,,,,7.67,-81.30
3564966,R,28401,,Ludlow Griscom,1924-04-10,1924-04-10,Squamata,Hydrophiidae,Pelamis,platurus,,3055895,,,,,,,,,,,,,,Yes,Yes,,,North America,,Panama,,,,,,,5 mi off mouth of Rio San Lorenzo [=Rio Grande],Veraguas,,,,,,,7.67,-81.30
3564968,R,28402,,Ludlow Griscom,1924-04-10,1924-04-10,Squamata,Hydrophiidae,Pelamis,platurus,,3055895,,,,,,,,,,,,,,Yes,Yes,,,North America,,Panama,,,,,,,5 mi off mouth of Rio San Lorenzo [=Rio Grande],Veraguas,,,,,,,7.67,-81.30
3564970,R,28403,,Ludlow Griscom,1924-04-10,1924-04-10,Squamata,Hydrophiidae,Pelamis,platurus,,3055895,,,,,,,,,,,,,,Yes,Yes,,,North America,,Panama,,,,,,,5 mi off mouth of Rio San Lorenzo [=Rio Grande],Veraguas,,,,,,,7.67,-81.30
3564960,R,28398,,Ludlow Griscom,1924-04-10,1924-04-10,Squamata,Hydrophiidae,Pelamis,platurus,,3055895,,,,,,,,,,,,,,Yes,Yes,,,North America,,Panama,,,,,,,5 mi off mouth of Rio San Lorenzo [=Rio Grande],Veraguas,,,,,,,7.67,-81.30
3344401,R,131534,,Chaim Kropack,1970-04-15,1970-04-15,Squamata,Hydrophiidae,Pelamis,platurus,,3027356,,,,,,,,,,,,,,Yes,Yes,,,North America,,Panama,,,,,,,near Isla Otoque,Bay of Panama,,,,,,,8.6217,-79.5383
3344407,R,131537,,Chaim Kropack,1970-04-15,1970-04-15,Squamata,Hydrophiidae,Pelamis,platurus,,3027356,,,,,,,,,,,,,,Yes,Yes,,,North America,,Panama,,,,,,,near Isla Otoque,Bay of Panama,,,,,,,8.6217,-79.5383
3344399,R,131533,,Chaim Kropack,1970-04-15,1970-04-15,Squamata,Hydrophiidae,Pelamis,platurus,,3027356,,,,,,,,,,,,,,Yes,Yes,,,North America,,Panama,,,,,,,near Isla Otoque,Bay of Panama,,,,,,,8.6217,-79.5383
3344403,R,131535,,Chaim Kropack,1970-04-15,1970-04-15,Squamata,Hydrophiidae,Pelamis,platurus,,3027356,,,,,,,,,,,,,,Yes,Yes,,,North America,,Panama,,,,,,,near Isla Otoque,Bay of Panama,,,,,,,8.6217,-79.5383
3344411,R,131539,,Chaim Kropack,1970-04-15,1970-04-15,Squamata,Hydrophiidae,Pelamis,platurus,,3027356,,,,,,,,,,,,,,Yes,Yes,,,North America,,Panama,,,,,,,near Isla Otoque,Bay of Panama,,,,,,,8.6217,-79.5383
3344409,R,131538,,Chaim Kropack,1970-04-15,1970-04-15,Squamata,Hydrophiidae,Pelamis,platurus,,3027356,,,,,,,,,,,,,,Yes,Yes,,,North America,,Panama,,,,,,,near Isla Otoque,Bay of Panama,,,,,,,8.6217,-79.5383
3344405,R,131536,,Chaim Kropack,1970-04-15,1970-04-15,Squamata,Hydrophiidae,Pelamis,platurus,,3027356,,,,,,,,,,,,,,Yes,Yes,,,North America,,Panama,,,,,,,near Isla Otoque,Bay of Panama,,,,,,,8.6217,-79.5383
3344315,R,131491,,John E. Pillsbury,1967-05-08,1967-05-08,Squamata,Hydrophiidae,Pelamis,platurus,,3027346,,,,,,,,,,,,,,Yes,Yes,,,North America,,Panama,,,,,,,,Bay of Panama,,,,,,,8.2467,-78.9367
3344313,R,131490,,John E. Pillsbury,1967-05-08,1967-05-08,Squamata,Hydrophiidae,Pelamis,platurus,,3027346,,,,,,,,,,,,,,Yes,Yes,,,North America,,Panama,,,,,,,,Bay of Panama,,,,,,,8.2467,-78.9367
3435129,R,106682,,Chaim Kropach,1970-11-09,1970-11-09,Squamata,Hydrophiidae,Pelamis,platurus,,3040633,,,,,,,,,,,,,,Yes,Yes,,,North America,,Panama,,,,,,,Gulf of Panama,Panama,,,,,,,8.7433,-79.5117
3461479,R,89523,,P. Centeno,1962-10-23,1962-10-23,Squamata,Hydrophiidae,Pelamis,platurus,,3045402,,,,,,,,,,,,,,Yes,"Yes
Yes",,,North America,,Panama,,,,,,,off Pacific Coast,,,,,,,,,
3499444,R,58068,,,1935,1935,Squamata,Hydrophiidae,Pelamis,platurus,,3049909,,,,,,,,,,,,,,Yes,"Yes
Yes",,,North America,,Panama,,,,,,,180 miles from Coiba Island,,,,,,,,,
3499442,R,58067,,,1935,1935,Squamata,Hydrophiidae,Pelamis,platurus,,3049909,,,,,,,,,,,,,,Yes,"Yes
Yes",,,North America,,Panama,,,,,,,180 miles from Coiba Island,,,,,,,,,
3585655,R,16938,,A. C. McGraner,,,Squamata,Hydrophiidae,Pelamis,platurus,,5031976,,,,,,,,,,,,,,,,,,North America,,Panama,,,,,,,"head waters of Chagres R.,",Canal Zone,,,,,,,,
3441090,R,115072,,Fred Parker,1971-11-01,1971-11-01,Squamata,Hydrophiidae,Hydrophis,elegans,,3041508,,,,,,,,,,,,,,,,,,Oceania,,Papua New Guinea,,,,,,,Emeti,Western,,,,,,,,
3501989,R,40511,,Rollo H. Beck,1928-08-18,1928-08-18,Squamata,Hydrophiidae,Laticauda,colubrina,,3050235,,,,,,,,,,,,,,,,,,Oceania,,Papua New Guinea,,,Solomon Islands,,,,"Solomon Islands, Bouka [=Buka]",[Bougainville],,,,,,,,
3501983,R,40510,,Rollo H. Beck,1928-08-18,1928-08-18,Squamata,Hydrophiidae,Laticauda,colubrina,,3050235,,,,,,,,,,,,,,,,,,Oceania,,Papua New Guinea,,,Solomon Islands,,,,"Solomon Islands, Bouka [=Buka]",[Bougainville],,,,,,,,
3613657,R,82451,,,1959-07-31,1959-07-31,Squamata,Hydrophiidae,Laticauda,colubrina,,3061560,,,,,,,,,,,,,,,,,,Oceania,,Papua New Guinea,,,,,,,Port Moresby,[National Capital District],,,,,,,,
3613673,R,82459,,,1959-07-31,1959-07-31,Squamata,Hydrophiidae,Laticauda,colubrina,,3061560,,,,,,,,,,,,,,,,,,Oceania,,Papua New Guinea,,,,,,,Port Moresby,[National Capital District],,,,,,,,
3611738,R,82447,,,1959-07-31,1959-07-31,Squamata,Hydrophiidae,Laticauda,colubrina,,3061560,,,,,,,,,,,,,,,,,,Oceania,,Papua New Guinea,,,,,,,Port Moresby,[National Capital District],,,,,,,,
3611734,R,82445,,,1959-07-30,1959-07-30,Squamata,Hydrophiidae,Laticauda,colubrina,,3061560,,,,,,,,,,,,,,,,,,Oceania,,Papua New Guinea,,,,,,,Port Moresby,[National Capital District],,,,,,,,
3613669,R,82457,,,1959-07-31,1959-07-31,Squamata,Hydrophiidae,Laticauda,colubrina,,3061560,,,,,,,,,,,,,,,,,,Oceania,,Papua New Guinea,,,,,,,Port Moresby,[National Capital District],,,,,,,,
3613659,R,82452,,,1959-07-31,1959-07-31,Squamata,Hydrophiidae,Laticauda,colubrina,,3061560,,,,,,,,,,,,,,,,,,Oceania,,Papua New Guinea,,,,,,,Port Moresby,[National Capital District],,,,,,,,
3613667,R,82456,,,1959-07-31,1959-07-31,Squamata,Hydrophiidae,Laticauda,colubrina,,3061560,,,,,,,,,,,,,,,,,,Oceania,,Papua New Guinea,,,,,,,Port Moresby,[National Capital District],,,,,,,,
3613679,R,82461,,,1959-07-31,1959-07-31,Squamata,Hydrophiidae,Laticauda,colubrina,,3061560,,,,,,,,,,,,,,,,,,Oceania,,Papua New Guinea,,,,,,,Port Moresby,[National Capital District],,,,,,,,
3613663,R,82454,,,1959-07-31,1959-07-31,Squamata,Hydrophiidae,Laticauda,colubrina,,3061560,,,,,,,,,,,,,,,,,,Oceania,,Papua New Guinea,,,,,,,Port Moresby,[National Capital District],,,,,,,,
3613665,R,82455,,,1959-07-31,1959-07-31,Squamata,Hydrophiidae,Laticauda,colubrina,,3061560,,,,,,,,,,,,,,,,,,Oceania,,Papua New Guinea,,,,,,,Port Moresby,[National Capital District],,,,,,,,
3613661,R,82453,,,1959-07-31,1959-07-31,Squamata,Hydrophiidae,Laticauda,colubrina,,3061560,,,,,,,,,,,,,,,,,,Oceania,,Papua New Guinea,,,,,,,Port Moresby,[National Capital District],,,,,,,,
3611748,R,82449,,,1959-07-31,1959-07-31,Squamata,Hydrophiidae,Laticauda,colubrina,,3061560,,,,,,,,,,,,,,,,,,Oceania,,Papua New Guinea,,,,,,,Port Moresby,[National Capital District],,,,,,,,
3611740,R,82448,,,1959-07-31,1959-07-31,Squamata,Hydrophiidae,Laticauda,colubrina,,3061560,,,,,,,,,,,,,,,,,,Oceania,,Papua New Guinea,,,,,,,Port Moresby,[National Capital District],,,,,,,,
3611732,R,82444,,,1959-07-30,1959-07-30,Squamata,Hydrophiidae,Laticauda,colubrina,,3061560,,,,,,,,,,,,,,,,,,Oceania,,Papua New Guinea,,,,,,,Port Moresby,[National Capital District],,,,,,,,
3613653,R,82450,,,1959-07-31,1959-07-31,Squamata,Hydrophiidae,Laticauda,colubrina,,3061560,,,,,,,,,,,,,,,,,,Oceania,,Papua New Guinea,,,,,,,Port Moresby,[National Capital District],,,,,,,,
3613675,R,82460,,,1959-07-31,1959-07-31,Squamata,Hydrophiidae,Laticauda,colubrina,,3061560,,,,,,,,,,,,,,,,,,Oceania,,Papua New Guinea,,,,,,,Port Moresby,[National Capital District],,,,,,,,
3611736,R,82446,,,1959-07-31,1959-07-31,Squamata,Hydrophiidae,Laticauda,colubrina,,3061560,,,,,,,,,,,,,,,,,,Oceania,,Papua New Guinea,,,,,,,Port Moresby,[National Capital District],,,,,,,,
3613671,R,82458,,,1959-07-31,1959-07-31,Squamata,Hydrophiidae,Laticauda,colubrina,,3061560,,,,,,,,,,,,,,,,,,Oceania,,Papua New Guinea,,,,,,,Port Moresby,[National Capital District],,,,,,,,
3613686,R,82462,,,1959-07-31,1959-07-31,Squamata,Hydrophiidae,Laticauda,colubrina,,3061560,,,,,,,,,,,,,,,,,,Oceania,,Papua New Guinea,,,,,,,Port Moresby,[National Capital District],,,,,,,,
3441070,R,115064,,Fred Parker,1974-03-,1974-03-,Squamata,Hydrophiidae,Disteira,schistosa,,3041504,,,,,,,,,,,,,,,,,,Oceania,,Papua New Guinea,,,,,,,"Fly River, North Channel",Western,,,,,,,,
3441162,R,115089,,Fred Parker,1974-03-,1974-03-,Squamata,Hydrophiidae,Lapemis,curtus,,3041515,,,,,,,,,,,,,,,,,,Oceania,,Papua New Guinea,,,,,,,Orokolo Bay,Gulf,,,,,,,,
3469824,R,76680,,R. F. Peterson,1956,1956,Squamata,Hydrophiidae,Laticauda,colubrina,,3046616,,,,,,,,,,,,,,,,,,Oceania,,Papua New Guinea,,,,,,,"Misima I, Bwagaoia, Louisiade Arch",Milne Bay,,,,,,,,
3414984,R,111818,,Fred Parker,1972-04-04,1972-04-04,Squamata,Hydrophiidae,Disteira,kingi,,3038036,,,,,,,,,,,,,,,,,,Oceania,,Papua New Guinea,,,,,,,Gulf of Papua,[Gulf],,,,,,,,
3414988,R,111820,,Fred Parker,1972-04-04,1972-04-04,Squamata,Hydrophiidae,Disteira,major,,3038036,,,,,,,,,,,,,,,,,,Oceania,,Papua New Guinea,,,,,,,Gulf of Papua,[Gulf],,,,,,,,
3415002,R,111827,,Fred Parker,1972-04-04,1972-04-04,Squamata,Hydrophiidae,Hydrophis,elegans,,3038036,,,,,,,,,,,,,,,,,,Oceania,,Papua New Guinea,,,,,,,Gulf of Papua,[Gulf],,,,,,,,
3441164,R,115090,,Fred Parker,1972-04-04,1972-04-04,Squamata,Hydrophiidae,Hydrophis,ornatus,,3038036,,,,,,,,,,,,,,,,,,Oceania,,Papua New Guinea,,,,,,,Gulf of Papua,[Gulf],,,,,,,,
3441082,R,115069,,Fred Parker,1972-04-04,1972-04-04,Squamata,Hydrophiidae,Hydrophis,brookii,,3038036,,,,,,,,,,,,,,,,,,Oceania,,Papua New Guinea,,,,,,,Gulf of Papua,[Gulf],,,,,,,,
3441066,R,115063,,Fred Parker,1973-08-10,1973-08-10,Squamata,Hydrophiidae,Aipysurus,eydouxi,,3041503,,,,,,,,,,,,,,,,,,Oceania,,Papua New Guinea,,,,,,,Katow,Western,,,,,,,,
3404278,R,104340,,Otis Barton,1966-02-,1966-03-,Squamata,Hydrophiidae,Enhydrina,zweifeli,,3036404,,,,,,,,,,,,,,,,,,Oceania,,Papua New Guinea,,,,,,,mouth of Sepik River,East Sepik,,,,,,,,
3441092,R,115073,,Fred Parker,1973-03-09,1973-03-09,Squamata,Hydrophiidae,Hydrophis,pacificus,,3041495,,,,,,,,,,,,,,,,,,Oceania,,Papua New Guinea,,,,,,,Mari,Western,,,,,,,,
3414982,R,111817,,Fred Parker,1972-04-04,1972-04-04,Squamata,Hydrophiidae,Disteira,kingi,,3038035,,,,,,,,,,,,,,,,,,Oceania,,Papua New Guinea,,,,,,,"Gulf of Papua, 40-50 mi E Daru",[Gulf],,,,,,,,
3414986,R,111819,,Fred Parker,1972-04-04,1972-04-04,Squamata,Hydrophiidae,Disteira,major,,3038035,,,,,,,,,,,,,,,,,,Oceania,,Papua New Guinea,,,,,,,"Gulf of Papua, 40-50 mi E Daru",[Gulf],,,,,,,,
3415000,R,111826,,Fred Parker,1972-04-04,1972-04-04,Squamata,Hydrophiidae,Hydrophis,elegans,,3038035,,,,,,,,,,,,,,,,,,Oceania,,Papua New Guinea,,,,,,,"Gulf of Papua, 40-50 mi E Daru",[Gulf],,,,,,,,
3453347,R,117759,,R. Mackay,1975-11-30,1975-11-30,Squamata,Hydrophiidae,Laticauda,colubrina,,3043696,,,,,,,,,,,,,,,,,,Oceania,,Papua New Guinea,,,,,,,"Bava Id, 2 km N, 19 km W of Port Moresby",Central,,,,,,,,
3358522,R,58869,,,1936-10-,1936-10-,Squamata,Hydrophiidae,Hydrophis,vorisi,,3029308,,,,,,,,,,,,,,,,,,Oceania,,Papua New Guinea,,,,,,,"East bank Fly River, opposite Sturt Island",[Western],,,,,,,,
3414954,R,111813,,Fred Parker,1973-01-14,1973-01-14,Squamata,Hydrophiidae,Aipysurus,laevis,,3037991,,,,,,,,,,,,,,,,,,Oceania,,Papua New Guinea,,,,,,,Daru Id,Western,,,,,,,,
3441094,R,115074,,Fred Parker,1974-03-,1974-03-,Squamata,Hydrophiidae,Hydrophis,pacificus,,3041509,,,,,,,,,,,,,,,,,,Oceania,,Papua New Guinea,,,,,,,Deception Bay,Gulf,,,,,,,,
3441158,R,115088,,Fred Parker,1974-03-,1974-03-,Squamata,Hydrophiidae,Lapemis,curtus,,3041509,,,,,,,,,,,,,,,,,,Oceania,,Papua New Guinea,,,,,,,Deception Bay,Gulf,,,,,,,,
3441100,R,115076,,Fred Parker,1963,1963,Squamata,Hydrophiidae,Hydrophis,fasciatus,,3041505,,,,,,,,,,,,,,,,,,Oceania,,Papua New Guinea,,,,,,,Gulf of Papua,Gulf,,,,,,,,
3441074,R,115066,,Fred Parker,1963,1963,Squamata,Hydrophiidae,Disteira,major,,3041505,,,,,,,,,,,,,,,,,,Oceania,,Papua New Guinea,,,,,,,Gulf of Papua,Gulf,,,,,,,,
3441086,R,115071,,Fred Parker,1963,1963,Squamata,Hydrophiidae,Hydrophis,elegans,,3041505,,,,,,,,,,,,,,,,,,Oceania,,Papua New Guinea,,,,,,,Gulf of Papua,Gulf,,,,,,,,
3441110,R,115077,,Fred Parker,1973-09-,1973-09-,Squamata,Hydrophiidae,Lapemis,curtus,,3041505,,,,,,,,,,,,,,,,,,Oceania,,Papua New Guinea,,,,,,,Gulf of Papua,Gulf,,,,,,,,
3441140,R,115084,,Fred Parker,1973-09-,1973-09-,Squamata,Hydrophiidae,Lapemis,curtus,,3041505,,,,,,,,,,,,,,,,,,Oceania,,Papua New Guinea,,,,,,,Gulf of Papua,Gulf,,,,,,,,
3441146,R,115085,,Fred Parker,1963,1963,Squamata,Hydrophiidae,Lapemis,curtus,,3041505,,,,,,,,,,,,,,,,,,Oceania,,Papua New Guinea,,,,,,,Gulf of Papua,Gulf,,,,,,,,
3441148,R,115086,,Fred Parker,1963,1963,Squamata,Hydrophiidae,Lapemis,curtus,,3041505,,,,,,,,,,,,,,,,,,Oceania,,Papua New Guinea,,,,,,,Gulf of Papua,Gulf,,,,,,,,
3441150,R,115087,,Fred Parker,1963,1963,Squamata,Hydrophiidae,Lapemis,curtus,,3041505,,,,,,,,,,,,,,,,,,Oceania,,Papua New Guinea,,,,,,,Gulf of Papua,Gulf,,,,,,,,
3441072,R,115065,,Fred Parker,1963,1963,Squamata,Hydrophiidae,Disteira,schistosa,,3041505,,,,,,,,,,,,,,,,,,Oceania,,Papua New Guinea,,,,,,,Gulf of Papua,Gulf,,,,,,,,
3441084,R,115070,,Fred Parker,1973-09-,1973-09-,Squamata,Hydrophiidae,Hydrophis,elegans,,3041505,,,,,,,,,,,,,,,,,,Oceania,,Papua New Guinea,,,,,,,Gulf of Papua,Gulf,,,,,,,,
3441096,R,115075,,Fred Parker,1973-09-,1973-09-,Squamata,Hydrophiidae,Hydrophis,pacificus,,3041505,,,,,,,,,,,,,,,,,,Oceania,,Papua New Guinea,,,,,,,Gulf of Papua,Gulf,,,,,,,,
3393361,R,63944,,J. J. Ter Pelkwijk,1941-03-16,1941-03-16,Squamata,Hydrophiidae,Hydrophis,fasciatus,atriceps,3034460,,,,,,,,,,,,,,,,,,Asia,,[Indonesia],,,,,,,"Java Sea, around Island Karimo Djava",,,,,,,,,
3393357,R,63942,,J. J. Ter Pelkwijk,1941-03-16,1941-03-16,Squamata,Hydrophiidae,Pelamis,platurus,,3034460,,,,,,,,,,,,,,,,,,Asia,,[Indonesia],,,,,,,"Java Sea, around Island Karimo Djava",,,,,,,,,
3393359,R,63943,,J. J. Ter Pelkwijk,1941-03-16,1941-03-16,Squamata,Hydrophiidae,Pelamis,platurus,,3034460,,,,,,,,,,,,,,,,,,Asia,,[Indonesia],,,,,,,"Java Sea, around Island Karimo Djava",,,,,,,,,
3393363,R,63945,,J. J. Ter Pelkwijk,1941-03-16,1941-03-16,Squamata,Hydrophiidae,Hydrophis,fasciatus,atriceps,3034460,,,,,,,,,,,,,,,,,,Asia,,[Indonesia],,,,,,,"Java Sea, around Island Karimo Djava",,,,,,,,,
3393365,R,63946,,J. J. Ter Pelkwijk,1941-03-16,1941-03-16,Squamata,Hydrophiidae,Hydrophis,ornatus,ornatus,3034460,,,,,,,,,,,,,,,,,,Asia,,[Indonesia],,,,,,,"Java Sea, around Island Karimo Djava",,,,,,,,,
3393367,R,63947,,J. J. Ter Pelkwijk,1941-03-16,1941-03-16,Squamata,Hydrophiidae,Hydrophis,belcheri,,3034460,,,,,,,,,,,,,,,,,,Asia,,[Indonesia],,,,,,,"Java Sea, around Island Karimo Djava",,,,,,,,,
3393369,R,63948,,J. J. Ter Pelkwijk,1941-03-16,1941-03-16,Squamata,Hydrophiidae,Disteira,schistosa,,3034460,,,,,,,,,,,,,,,,,,Asia,,[Indonesia],,,,,,,"Java Sea, around Island Karimo Djava",,,,,,,,,
3441112,R,115078,,Fred Parker,1973-10-,1973-10-,Squamata,Hydrophiidae,Lapemis,curtus,,3041506,,,,,,,,,,,,,,,,,,Asia,,Indonesia,,,,,,,"West Irian, Arafura Sea, 30-40 mi W Fredrik Hendrik Id",[Irian Jaya],,,,,,,,
3441114,R,115079,,Fred Parker,1973-10-,1973-10-,Squamata,Hydrophiidae,Lapemis,curtus,,3041506,,,,,,,,,,,,,,,,,,Asia,,Indonesia,,,,,,,"West Irian, Arafura Sea, 30-40 mi W Fredrik Hendrik Id",[Irian Jaya],,,,,,,,
3441116,R,115080,,Fred Parker,1973-10-,1973-10-,Squamata,Hydrophiidae,Lapemis,curtus,,3041506,,,,,,,,,,,,,,,,,,Asia,,Indonesia,,,,,,,"West Irian, Arafura Sea, 30-40 mi W Fredrik Hendrik Id",[Irian Jaya],,,,,,,,
3441118,R,115081,,Fred Parker,1973-10-,1973-10-,Squamata,Hydrophiidae,Lapemis,curtus,,3041506,,,,,,,,,,,,,,,,,,Asia,,Indonesia,,,,,,,"West Irian, Arafura Sea, 30-40 mi W Fredrik Hendrik Id",[Irian Jaya],,,,,,,,
3441122,R,115082,,Fred Parker,1973-10-,1973-10-,Squamata,Hydrophiidae,Lapemis,curtus,,3041506,,,,,,,,,,,,,,,,,,Asia,,Indonesia,,,,,,,"West Irian, Arafura Sea, 30-40 mi W Fredrik Hendrik Id",[Irian Jaya],,,,,,,,
3441136,R,115083,,Fred Parker,1973-10-,1973-10-,Squamata,Hydrophiidae,Lapemis,curtus,,3041506,,,,,,,,,,,,,,,,,,Asia,,Indonesia,,,,,,,"West Irian, Arafura Sea, 30-40 mi W Fredrik Hendrik Id",[Irian Jaya],,,,,,,,
3441076,R,115067,,Fred Parker,1973-10-,1973-10-,Squamata,Hydrophiidae,Disteira,major,,3041506,,,,,,,,,,,,,,,,,,Asia,,Indonesia,,,,,,,"West Irian, Arafura Sea, 30-40 mi W Fredrik Hendrik Id",[Irian Jaya],,,,,,,,
3441080,R,115068,,Fred Parker,1973-10-,1973-10-,Squamata,Hydrophiidae,Disteira,major,,3041506,,,,,,,,,,,,,,,,,,Asia,,Indonesia,,,,,,,"West Irian, Arafura Sea, 30-40 mi W Fredrik Hendrik Id",[Irian Jaya],,,,,,,,
3606597,R,3896,,Maximilian,,,Squamata,Hydrophiidae,Pelamis,platurus,,3060388,,,,,,,,,,,,,,,,,,Asia,,Indonesia,,,,,,,Java,,,,,,,,,
3378559,R,108593,,Dermot M. Smythe et al.,1971-05-06,1971-05-06,Squamata,Hydrophiidae,Laticauda,colubrina,,3032238,,,,,,,,,,,,,,,,,,Asia,,Indonesia,,,,,,,"Kai (Kei) Ids, Taam Id",,,,,,,,,
3527791,R,32244,,,1926-05-,1926-08-,Squamata,Hydrophiidae,Laticauda,colubrina,,3052280,,,,,,,,,,,,,,,,,,Asia,,Indonesia,,,,,,,"Uhak, on north coast of Wetar",,,,,,,,,
3455041,R,71528,,,,,Squamata,Hydrophiidae,Laticauda,colubrina,,3044066,,,,,,,,,,,,,,Yes,"Yes
Yes",,,Asia,,Indonesia,,,,,,,Ambon,,,,,,,,,
5153790,R,161774,,,1972-12-18,1972-12-18,Squamata,Hydrophiidae,Lapemis,hardwickii,,5009881,,,,,,,,,,,,,,,,,,Asia,,Indonesia,,,,,,,MacCluer Gulf,West Irian,,,,,,,,
5153782,R,161770,,,1972-12-17,1972-12-17,Squamata,Hydrophiidae,Hydrophis,ornatus,,5009881,,,,,,,,,,,,,,,,,,Asia,,Indonesia,,,,,,,MacCluer Gulf,West Irian,,,,,,,,
3499608,R,58247,,Beebe coll,1910-05-,1910-05-,Squamata,Hydrophiidae,Hydrophis,fasciatus,atriceps,3049959,,,,,,,,,,,,,,,,,,Asia,,Malaysia,,,,,,,Pahang,,,,,,,,,
5153794,R,161776,,John Lee,1966-12-17,1966-12-17,Squamata,Hydrophiidae,Laticauda,colubrina,,5009875,,,,,,,,,,,,,,,,,,Asia,,Malaysia,,,Sudong Island [Pulau Sudong],,,,5 mi. S Singapore,[Singapore],,,,,,,,
3395764,R,128523,,Sherman A. Minton,1981-06-24,1981-06-24,Squamata,Hydrophiidae,Leioselasma,coggeri,,3034698,,,,,,,,,,,,,,,,,,Oceania,,New Caledonia,,Chesterfield Islands,,,,,Anchorage Islet,,,,,,,,,
3395774,R,128527,,"William A. Dunson, Harold Heatwole, G. Burns, D. Burman, Sherman A. Minton & G. Stokes",1981-06-21,1981-06-24,Squamata,Hydrophiidae,Leioselasma,coggeri,,3034700,,,,,,,,,,,,,,,,,,Oceania,,New Caledonia,,Chesterfield Islands,,,,,Loop Islet,,,,,,,,,
3395770,R,128525,,"William A. Dunson, Harold Heatwole, G. Burns, D. Burman, Sherman A. Minton & G. Stokes",1981-06-21,1981-06-24,Squamata,Hydrophiidae,Leioselasma,coggeri,,3034700,,,,,,,,,,,,,,,,,,Oceania,,New Caledonia,,Chesterfield Islands,,,,,Loop Islet,,,,,,,,,
3395768,R,128524,,"William A. Dunson, Harold Heatwole, G. Burns, D. Burman, Sherman A. Minton & G. Stokes",1981-06-21,1981-06-24,Squamata,Hydrophiidae,Leioselasma,coggeri,,3034700,,,,,,,,,,,,,,,,,,Oceania,,New Caledonia,,Chesterfield Islands,,,,,Loop Islet,,,,,,,,,
3395772,R,128526,,"William A. Dunson, Harold Heatwole, G. Burns, D. Burman, Sherman A. Minton & G. Stokes",1981-06-21,1981-06-24,Squamata,Hydrophiidae,Leioselasma,coggeri,,3034700,,,,,,,,,,,,,,,,,,Oceania,,New Caledonia,,Chesterfield Islands,,,,,Loop Islet,,,,,,,,,
5153762,R,161760,,"Harold Heatwole, William A. Dunson, Sherman A. Minton & G. Stokes",1981-06-23,1981-06-23,Squamata,Hydrophiidae,Leioselasma,coggeri,,5010955,,,,,,,,,,,,,,,,,,Oceania,,New Caledonia,,Chesterfield Islands,,,,South Pacific,off Loop Island,,,,,,,,,
3505323,R,42006,,Rollo H. Beck,1926-07-20,1926-07-20,Squamata,Hydrophiidae,Laticauda,colubrina,,3050461,,,,,,,,,,,,,,,,,,Oceania,,Vanuatu,,,Faté [= Éfaté],,,,,[Shefa],,,,,,,,
3498344,R,57705,,L. MacMillan,1935,1936,Squamata,Hydrophiidae,Laticauda,colubrina,,3049729,,,,,,,,,,,,,,,,,,Oceania,,Vanuatu,,,Tanna,,,,,[Tafea],,,,,,,,
3447220,R,116019,,,1977-03-,1977-03-,Squamata,Hydrophiidae,Laticauda,colubrina,,3042801,,,,,,,,,,,,,,,,,,Oceania,,Palau,,,Ngerugelbtang Island,,,,,,,,,,,,,
3449196,R,70642,,P. J. Hill,,,Squamata,Hydrophiidae,Laticauda,colubrina,,3043239,,,,,,,,,,,,,,,,,,Oceania,,Palau,,Palau Islands,,,,,,Koror,,,,,,,,
3449194,R,70641,,P. J. Hill,,,Squamata,Hydrophiidae,Laticauda,colubrina,,3043239,,,,,,,,,,,,,,,,,,Oceania,,Palau,,Palau Islands,,,,,,Koror,,,,,,,,
3449192,R,70640,,P. J. Hill,,,Squamata,Hydrophiidae,Laticauda,colubrina,,3043239,,,,,,,,,,,,,,,,,,Oceania,,Palau,,Palau Islands,,,,,,Koror,,,,,,,,
5153796,R,161777,,William A. Dunson,1977-03-,1977-03-,Squamata,Hydrophiidae,Laticauda,colubrina,,5009882,,,,,,,,,,,,,,,,,,Oceania,,Palau,,,Ngerugelbtang Island,,,,,,,,,,,,,
3447194,R,116012,,local fishermen,1975-09-,1975-09-,Squamata,Hydrophiidae,Hydrophis,ornatus,,3042791,,,,,,,,,,,,,,,,,,Asia,,Philippines,,,,,,,Visayan Sea near Gigantes Islands,,,,,,,,,
3447196,R,116013,,local fishermen,1975-09-,1975-09-,Squamata,Hydrophiidae,Hydrophis,ornatus,,3042791,,,,,,,,,,,,,,,,,,Asia,,Philippines,,,,,,,Visayan Sea near Gigantes Islands,,,,,,,,,
3602424,R,2290,,Thomas Barbour & L. Agassiz,,,Squamata,Hydrophiidae,Lapemis,curtus,,3060061,,,,,,,,,,,,,,,,,,Asia,,Philippines,,,,,,,Manila Bay,,,,,,,,,
3463086,R,74486,,,1931-05-,1931-05-,Squamata,Hydrophiidae,Hydrophis,semperi,,3045601,,,,,,,,,,,,,,,,,,Asia,,Philippines,,,Luzon,,,,Lake Bombon (Taal),,,,,,,,,
5153784,R,161771,,local fishermen,1985-01-09,1985-01-09,Squamata,Hydrophiidae,Hydrophis,semperi,,5009888,,,,,,,,,,,,,,,,,,Asia,,Philippines,,,,,,,"Lake Taal, Subic village",Luzon,,,,,,,,
5153768,R,161763,,local fishermen,1984-12-07,1984-12-07,Squamata,Hydrophiidae,Hydrophis,cyanocinctus,,5009889,,,,,,,,,,,,,,,,,,Asia,,Philippines,,,,,,,Lingayan Gulf,Luzon,,,,,,,,
5153792,R,161775,,local fishermen,1984-12-07,1984-12-07,Squamata,Hydrophiidae,Lapemis,hardwickii,,5009889,,,,,,,,,,,,,,,,,,Asia,,Philippines,,,,,,,Lingayan Gulf,Luzon,,,,,,,,
5153770,R,161764,,,,,Squamata,Hydrophiidae,Hydrophis,fasciatus,,5009890,,,,,,,,,,,,,,,,,,Asia,,Philippines,,,,,,,Manila Bay,Luzon,,,,,,,,
3606609,R,3901,,Harry A. Davies,1906,1906,Squamata,Hydrophiidae,Hydrophis,melanocephalus,,3060910,,,,,,,,,,,,,,,,,,Asia,,Philippines,,,Luzon,,,,Manila,,,,,,,,,
5065428,R,160739,,Romeo M. Lumawig,1972-05-,1972-05-,Squamata,Hydrophiidae,Hydrophis,fasciatus,,5005054,,,,,,,,,,,,,,,,,,Asia,,Philippines,,,,,,,"BOAC, Amoingon",Marinduque Island,,,,,,,,
5065430,R,160740,,Romeo M. Lumawig,1972-05-,1972-05-,Squamata,Hydrophiidae,Lapemis,hardwickii,,5005054,,,,,,,,,,,,,,,,,,Asia,,Philippines,,,,,,,"BOAC, Amoingon",Marinduque Island,,,,,,,,
5065432,R,160741,,Romeo M. Lumawig,1971-12-,1971-12-,Squamata,Hydrophiidae,Laticauda,colubrina,,5005054,,,,,,,,,,,,,,,,,,Asia,,Philippines,,,,,,,"BOAC, Amoingon",Marinduque Island,,,,,,,,
5065436,R,160743,,Romeo M. Lumawig,1972-05-,1972-05-,Squamata,Hydrophiidae,Pelamis,platurus,,5005054,,,,,,,,,,,,,,,,,,Asia,,Philippines,,,,,,,"BOAC, Amoingon",Marinduque Island,,,,,,,,
5153800,R,161779,,Sherman A. Minton & Tom Forhan,1975-09-12,1975-09-12,Squamata,Hydrophiidae,Laticauda,semifasciata,,5009910,,,,,,,,,,,,,,,,,,Asia,,Philippines,,,,,,,Visayan Sea nr. Gigantes Islands on coral reef ca. 10 m depth,Visayan Islands,,,,,,,,
5153798,R,161778,,,,1975-09-17,Squamata,Hydrophiidae,Laticauda,laticaudata,,5009909,,,,,,,,,,,,,,,,,,Asia,,Philippines,,,,,,,Visayan Sea nr. Gigantes Islands,Visayan Islands,,,,,,,,
5153780,R,161769,,,1975-09-15,1975-09-15,Squamata,Hydrophiidae,Hydrophis,ornatus,,5009909,,,,,,,,,,,,,,,,,,Asia,,Philippines,,,,,,,Visayan Sea nr. Gigantes Islands,Visayan Islands,,,,,,,,
5153774,R,161766,,,1975-09-13,1975-09-13,Squamata,Hydrophiidae,Hydrophis,lamberti,,5009909,,,,,,,,,,,,,,,,,,Asia,,Philippines,,,,,,,Visayan Sea nr. Gigantes Islands,Visayan Islands,,,,,,,,
5153756,R,161757,,,1975-09-14,1975-09-14,Squamata,Hydrophiidae,Hydrophis,belcheri,,5009909,,,,,,,,,,,,,,,,,,Asia,,Philippines,,,,,,,Visayan Sea nr. Gigantes Islands,Visayan Islands,,,,,,,,
3505416,R,42049,,Rollo H. Beck,1927,1927,Squamata,Hydrophiidae,Laticauda,colubrina,,3050468,,,,,,,,,,,,,,,,,,Oceania,,Solomon Islands,,,Solomon Islands,,,,Isabel [=Santa Isabel],,,,,,,,,
3505414,R,42048,,Rollo H. Beck,1927,1927,Squamata,Hydrophiidae,Laticauda,colubrina,,3050468,,,,,,,,,,,,,,,,,,Oceania,,Solomon Islands,,,Solomon Islands,,,,Isabel [=Santa Isabel],,,,,,,,,
3509314,R,43873,,W. J. Eyerdam,1930,1930,Squamata,Hydrophiidae,Laticauda,colubrina,,3050815,,,,,,,,,,,,,,,,,,Oceania,,Solomon Islands,,,Solomon Islands,,,,Choiseul,,,,,,,,,
3460406,R,89446,,Fred Parker,1961-04-02,1961-04-02,Squamata,Hydrophiidae,Laticauda,colubrina,,3045099,,,,,,,,,,,,,,,,,,Oceania,,Solomon Islands,,,Solomon Islands,,,,"Laumona Island, 1 mi W of Shortland Id, Terr of New Guinea",,,,,,,,,
3505657,R,42155,,Rollo H. Beck,1927,1927,Squamata,Hydrophiidae,Laticauda,colubrina,,3050143,,,,,,,,,,,,,,,,,,Oceania,,Solomon Islands,,,Solomon Islands,,,,San Cristoval [=San Cristobal],,,,,,,,,
3380071,R,124916,,M. McCoy,1981-11-28,1981-11-28,Squamata,Hydrophiidae,Laticauda,laticaudata,crockeri,3032259,,,,,,,,,,,,,,,,,,Oceania,,Solomon Islands,,,Solomon Islands,,,,"Rennell Id, Lake Te-Nggano",,,,,,,,,
3380069,R,124915,,M. McCoy,1981-11-28,1981-11-28,Squamata,Hydrophiidae,Laticauda,laticaudata,crockeri,3032259,,,,,,,,,,,,,,,,,,Oceania,,Solomon Islands,,,Solomon Islands,,,,"Rennell Id, Lake Te-Nggano",,,,,,,,,
3629802,R,87678,,,1960-07-11,1960-07-11,Squamata,Hydrophiidae,Lapemis,curtus,,3064689,,,,,,,,,,,,,,,,,,Oceania,,Australia,,,,,,,"Karumba, N Queensland",Queensland,,,,,,,,
5153748,R,161753,,Madge R. Minton & Sherman A. Minton,1980-07-07,1980-07-07,Squamata,Hydrophiidae,Aipysurus,laevis,,5009859,,,,,,,,,,,,,,,,,,Oceania,,Australia,,,,,,,"Frigate Cay, Swain's Reefs",Queensland,,,,,,,,
5153750,R,161754,,,1973-01-,1973-01-,Squamata,Hydrophiidae,Astrotia,stokesii,,5009842,,,,,,,,,,,,,,,,,,Oceania,,Australia,,,,,,,"Timor Sea, Ashmore Reef",Northern Territory,,,,,,,,
5153740,R,161749,,,1973-01-09,1973-01-09,Squamata,Hydrophiidae,Aipysurus,duboisii,,5009871,,,,,,,,,,,,,,,,,,Oceania,,Australia,,,,,,,"Scott Reef, Timor Sea",,,,,,,,,
3613697,R,82463,,,1959-06-21,1959-06-21,Squamata,Hydrophiidae,Ephalophis,mertoni,,3061852,,,,,,,,,,,,,,,,,,Oceania,,Australia,,,,,,,"Karumba, Lower Norman River, Gulf country, Northern Queensland",Queensland,,,,,,,,
3613705,R,82464,,,1959-07-04,1959-07-04,Squamata,Hydrophiidae,Hydrophis,caerulescens,,3061855,,,,,,,,,,,,,,,,,,Oceania,,Australia,,,,,,,"Karumba, Lower Norman River, Northern Queensland",Queensland,,,,,,,,
3629804,R,87679,,,1960-07-29,1960-07-29,Squamata,Hydrophiidae,Lapemis,curtus,,3064690,,,,,,,,,,,,,,,,,,Oceania,,Australia,,,,,,,"Normanton, Lower Norman River, Northern Queensland",Queensland,,,,,,,,
3444842,R,69330,,,,,Squamata,Hydrophiidae,Aipysurus,eydouxi,,3042266,,,,,,,,,,,,,,,,,,Oceania,,Australia,,,,,,,Cooktown,Queensland,,,,,,sea level,,
3547290,R,20955,,Australian Museum,,,Squamata,Hydrophiidae,Pelamis,platurus,,3054084,,,,,,,,,,,,,,,,,,Oceania,,Australia,,,,,,,"Narrabeen Beach, near Sydney",New South Wales,,,,,,,,
3626721,R,86181,,G. Pawlowski,1961-01-,1961-01-,Squamata,Hydrophiidae,Hydrophis,caerulescens,,3064079,,,,,,,,,,,,,,,,,,Oceania,,Australia,,,,,,,"Karumba, Northern Queensland",Queensland,,,,,,,,
3552424,R,23077,,,,,Squamata,Hydrophiidae,Laticauda,laticaudata,,3054640,,,,,,,,,,,,,,,,,,Oceania,,Australia,,,,,,,New Canadonia (Caledonia?),,,,,,,,,
3552454,R,23093,,,,,Squamata,Hydrophiidae,Laticauda,laticaudata,,3054640,,,,,,,,,,,,,,,,,,Oceania,,Australia,,,,,,,New Canadonia (Caledonia?),,,,,,,,,
3552464,R,23098,,,,,Squamata,Hydrophiidae,Laticauda,laticaudata,,3054640,,,,,,,,,,,,,,,,,,Oceania,,Australia,,,,,,,New Canadonia (Caledonia?),,,,,,,,,
3414974,R,111816,,Fred Parker,1972-10-06,1972-10-06,Squamata,Hydrophiidae,Disteira,kingi,,3038025,,,,,,,,,,,,,,,,,,Oceania,,Australia,,,,,,,Torres Strait nr Darnley Id,Queensland,,,,,,,,
3414996,R,111824,,Fred Parker,1972-10-06,1972-10-06,Squamata,Hydrophiidae,Hydrophis,elegans,,3038025,,,,,,,,,,,,,,,,,,Oceania,,Australia,,,,,,,Torres Strait nr Darnley Id,Queensland,,,,,,,,
3414998,R,111825,,Fred Parker,1972-11-11,1972-11-11,Squamata,Hydrophiidae,Hydrophis,elegans,,3038025,,,,,,,,,,,,,,,,,,Oceania,,Australia,,,,,,,Torres Strait nr Darnley Id,Queensland,,,,,,,,
3415004,R,111828,,Fred Parker,1972-11-11,1972-11-11,Squamata,Hydrophiidae,Hydrophis,ornatus,,3038025,,,,,,,,,,,,,,,,,,Oceania,,Australia,,,,,,,Torres Strait nr Darnley Id,Queensland,,,,,,,,
3414990,R,111821,,Fred Parker,1972-11-11,1972-11-11,Squamata,Hydrophiidae,Hydrophis,brookii,,3038025,,,,,,,,,,,,,,,,,,Oceania,,Australia,,,,,,,Torres Strait nr Darnley Id,Queensland,,,,,,,,
3414992,R,111822,,Fred Parker,1972-11-11,1972-11-11,Squamata,Hydrophiidae,Hydrophis,brookii,,3038025,,,,,,,,,,,,,,,,,,Oceania,,Australia,,,,,,,Torres Strait nr Darnley Id,Queensland,,,,,,,,
3414994,R,111823,,Fred Parker,1972-11-11,1972-11-11,Squamata,Hydrophiidae,Hydrophis,brookii,,3038025,,,,,,,,,,,,,,,,,,Oceania,,Australia,,,,,,,Torres Strait nr Darnley Id,Queensland,,,,,,,,
3414952,R,111812,,Fred Parker,1972-10-06,1972-10-06,Squamata,Hydrophiidae,Acalyptophis,peronii,,3038025,,,,,,,,,,,,,,,,,,Oceania,,Australia,,,,,,,Torres Strait nr Darnley Id,Queensland,,,,,,,,
3414958,R,111814,,Fred Parker,1972-11-11,1972-11-11,Squamata,Hydrophiidae,Disteira,stokesii,,3038025,,,,,,,,,,,,,,,,,,Oceania,,Australia,,,,,,,Torres Strait nr Darnley Id,Queensland,,,,,,,,
3414966,R,111815,,Fred Parker,1972-08-15,1972-08-15,Squamata,Hydrophiidae,Disteira,schistosa,,3038030,,,,,,,,,,,,,,,,,,Oceania,,Australia,,,,,,,Torres Strait,Queensland,,,,,,,,
3415006,R,111829,,Fred Parker,1972-08-15,1972-08-15,Squamata,Hydrophiidae,Lapemis,curtus,,3038030,,,,,,,,,,,,,,,,,,Oceania,,Australia,,,,,,,Torres Strait,Queensland,,,,,,,,
3415008,R,111830,,Fred Parker,1972-08-15,1972-08-15,Squamata,Hydrophiidae,Lapemis,curtus,,3038030,,,,,,,,,,,,,,,,,,Oceania,,Australia,,,,,,,Torres Strait,Queensland,,,,,,,,
3415010,R,111831,,Fred Parker,1972-08-15,1972-08-15,Squamata,Hydrophiidae,Lapemis,curtus,,3038030,,,,,,,,,,,,,,,,,,Oceania,,Australia,,,,,,,Torres Strait,Queensland,,,,,,,,
5153746,R,161752,,,1973-01-01,1973-01-01,Squamata,Hydrophiidae,Aipysurus,laevis,,5009867,,,,,,,,,,,,,,,,,,Oceania,,Australia,,,,,,,"Ashmore Reefs, Timor Sea",,,,,,,,,
5153752,R,161755,,,1973-01-01,1973-01-01,Squamata,Hydrophiidae,Emydocephalus,annulatus,,5009867,,,,,,,,,,,,,,,,,,Oceania,,Australia,,,,,,,"Ashmore Reefs, Timor Sea",,,,,,,,,
5153760,R,161759,,,1973-01-04,1973-01-04,Squamata,Hydrophiidae,Leioselasma,coggeri,,5009867,,,,,,,,,,,,,,,,,,Oceania,,Australia,,,,,,,"Ashmore Reefs, Timor Sea",,,,,,,,,
5153742,R,161750,,,1973-01-04,1973-01-04,Squamata,Hydrophiidae,Aipysurus,foliosquama,,5009867,,,,,,,,,,,,,,,,,,Oceania,,Australia,,,,,,,"Ashmore Reefs, Timor Sea",,,,,,,,,
5153744,R,161751,,,1973-01-05,1973-01-05,Squamata,Hydrophiidae,Aipysurus,fuscus,,5009867,,,,,,,,,,,,,,,,,,Oceania,,Australia,,,,,,,"Ashmore Reefs, Timor Sea",,,,,,,,,
5153738,R,161748,,,1973-01-05,1973-01-05,Squamata,Hydrophiidae,Acalyptophis,peronii,,5009867,,,,,,,,,,,,,,,,,,Oceania,,Australia,,,,,,,"Ashmore Reefs, Timor Sea",,,,,,,,,
3606523,R,82224,,W. H. Butler,1959-05-,1959-05-,Squamata,Hydrophiidae,Hydrophis,elegans,,3060892,,,,,,,,,,,,,,,,,,Oceania,,Australia,,,,,,,Shark Bay,West Australia,,,,,,,,
3626682,R,86164,,,1960-10-25,1960-10-25,Squamata,Hydrophiidae,Hydrelaps,darwiniensis,,3064040,,,,,,,,,,,,,,,,,,Oceania,,Australia,,,,,,,"Karumba, N Queensland",Queensland,,,,,,,,
3626710,R,86176,,,1960-12-05,1960-12-05,Squamata,Hydrophiidae,Aipysurus,laevis,,3064077,,,,,,,,,,,,,,,,,,Oceania,,Australia,,,,,,,"Roebuck Bay, nr Broome",Western Australia,,,,,,,,
3626705,R,86174,,,1960-12-05,1960-12-05,Squamata,Hydrophiidae,Disteira,stokesii,,3064077,,,,,,,,,,,,,,,,,,Oceania,,Australia,,,,,,,"Roebuck Bay, nr Broome",Western Australia,,,,,,,,
3626715,R,86178,,,1960-12-05,1960-12-05,Squamata,Hydrophiidae,Aipysurus,laevis,,3064077,,,,,,,,,,,,,,,,,,Oceania,,Australia,,,,,,,"Roebuck Bay, nr Broome",Western Australia,,,,,,,,
3626717,R,86179,,,1960-12-05,1960-12-05,Squamata,Hydrophiidae,Aipysurus,laevis,,3064077,,,,,,,,,,,,,,,,,,Oceania,,Australia,,,,,,,"Roebuck Bay, nr Broome",Western Australia,,,,,,,,
3626686,R,86166,,,1960-11-12,1960-11-12,Squamata,Hydrophiidae,Hydrelaps,darwiniensis,,3064076,,,,,,,,,,,,,,,,,,Oceania,,Australia,,,,,,,Broome,Western Australia,,,,,,,,
3626688,R,86167,,,1960-11-13,1960-11-13,Squamata,Hydrophiidae,Hydrelaps,darwiniensis,,3064076,,,,,,,,,,,,,,,,,,Oceania,,Australia,,,,,,,Broome,Western Australia,,,,,,,,
3626684,R,86165,,,1960-11-12,1960-11-12,Squamata,Hydrophiidae,Hydrelaps,darwiniensis,,3064076,,,,,,,,,,,,,,,,,,Oceania,,Australia,,,,,,,Broome,Western Australia,,,,,,,,
3626690,R,86168,,,1960-11-13,1960-11-13,Squamata,Hydrophiidae,Hydrelaps,darwiniensis,,3064076,,,,,,,,,,,,,,,,,,Oceania,,Australia,,,,,,,Broome,Western Australia,,,,,,,,
3626692,R,86169,,,1960-11-14,1960-11-14,Squamata,Hydrophiidae,Hydrelaps,darwiniensis,,3064076,,,,,,,,,,,,,,,,,,Oceania,,Australia,,,,,,,Broome,Western Australia,,,,,,,,
3626694,R,86170,,,1960-11-14,1960-11-14,Squamata,Hydrophiidae,Hydrelaps,darwiniensis,,3064076,,,,,,,,,,,,,,,,,,Oceania,,Australia,,,,,,,Broome,Western Australia,,,,,,,,
3609076,R,5087,,,,,Squamata,Hydrophiidae,Aipysurus,laevis,,3061269,,,,,,,,,,,,,,,,,,Oceania,,Australia,,,,,,,,Queensland,,,,,,,,
3609080,R,5089,,,,,Squamata,Hydrophiidae,Disteira,major,,3061269,,,,,,,,,,,,,,,,,,Oceania,,Australia,,,,,,,,Queensland,,,,,,,,
3626719,R,86180,,William Hosmer,1951,1951,Squamata,Hydrophiidae,Pelamis,platurus,,3064078,,,,,,,,,,,,,,,,,,Oceania,,Australia,,,,,,,Botany Bay,New South Wales,,,,,,,,
3441166,R,115091,,Fred Parker,1973-05-,1973-05-,Squamata,Hydrophiidae,Pelamis,platurus,,3041516,,,,,,,,,,,,,,,,,,Oceania,,Australia,,,,,,,"Gulf of Carpentaria, Weipa",Queensland,,,,,,,,
3508272,R,43355,,,,,Squamata,Hydrophiidae,Aipysurus,apraefrontalis,,3050749,,,,,,,,,,,,,,,,,,Oceania,,Australia,,[Ashmore Islands],,,,,Ashmore Reef,,[Timor Sea],,,,,,,
3508270,R,43354,,,,,Squamata,Hydrophiidae,Aipysurus,duboisii,,3050749,,,,,,,,,,,,,,,,,,Oceania,,Australia,,[Ashmore Islands],,,,,Ashmore Reef,,[Timor Sea],,,,,,,
3606601,R,3898,,Maximilian,,,Squamata,Hydrophiidae,Pelamis,platurus,,3041546,,,,,,,,,,,,,,,,,,Oceania,,,,East Indies,,,,,,,,,,,,,,
3463493,R,74662,,Schwitzer,1954-07-14,1954-07-14,Squamata,Hydrophiidae,Laticauda,colubrina,,3045682,,,,,,,,,,,,,,,,,,Oceania,,Palau,,"Palau Isls [= Islands], [Caroline Islands]",Koror,,,,,,,,,,,,,
3410903,R,99853,,Jeffrey Butler,1963-09-03,1963-09-03,Squamata,Hydrophiidae,Pelamis,platurus,,3037451,,,,,,,,,,,,,,,,,,Oceania,,Australia,,,,,,,"Perth, City Beach",Western Australia,,,,,,,,
3509542,R,43987,,,1929,1929,Squamata,Hydrophiidae,Laticauda,colubrina,,3050864,,,,,,,,,,,,,,,,,,Oceania,,Papua New Guinea,,Solomon Ids [archipelago],Bougainville,,,,,[Bougainville],,,,,,,,
3505327,R,42008,,Rollo H. Beck,1928,1928,Squamata,Hydrophiidae,Laticauda,colubrina,,3047864,,,,,,,,,,,,,,,,,,Oceania,,Papua New Guinea,,Solomons [ = Solomon Islands archipelago],Bougainville,,,,,[Bougainville],,,,,,,,
3505329,R,42009,,Rollo H. Beck,1928,1928,Squamata,Hydrophiidae,Laticauda,colubrina,,3047864,,,,,,,,,,,,,,,,,,Oceania,,Papua New Guinea,,Solomons [ = Solomon Islands archipelago],Bougainville,,,,,[Bougainville],,,,,,,,
3581301,R,3902,,Maximilian,,,Squamata,Hydrophiidae,Laticauda,laticaudata,,3057181,,,,,,,,,,,,,,,,,,No Data,,No Data,,,,,,,,,,,,,,,,
3578156,R,14179,,Malcolm A. Smith M.D.,,,Squamata,Hydrophiidae,Lapemis,curtus,,3056788,,,,,,,,,,,,,,,,,,Asia,,,,,,,,,,,Gulf of Siam,,,,,,,
3603117,R,81861,,,1958-12-31,1958-12-31,Squamata,Hydrophiidae,Disteira,schistosa,,3060195,,,,,,,,,,,,,,,,,,Asia,,Pakistan,,,,,,,Coastal waters nr Karachi,Islamabad,,,,,,,,
3625493,R,85590,,Robert Brewer,1960-12-11,1960-12-11,Squamata,Hydrophiidae,Pelamis,platurus,,3063844,,,,,,,,,,,,,,,,,,Asia,,Pakistan,,,,,,,sandpit nr Karachi Harbor,Karachi,,,,,,,,
3626700,R,86172,,,1960-11-14,1960-11-14,Squamata,Hydrophiidae,Hydrelaps,darwiniensis,,3064076,,,,,,,,,,,,,,,,,,Oceania,,Australia,,,,,,,Broome,Western Australia,,,,,,,,
3626703,R,86173,,,1960-10-25,1960-10-25,Squamata,Hydrophiidae,Disteira,stokesii,,3064040,,,,,,,,,,,,,,,,,,Oceania,,Australia,,,,,,,"Karumba, N Queensland",Queensland,,,,,,,,
3626713,R,86177,,,1960-12-05,1960-12-05,Squamata,Hydrophiidae,Aipysurus,laevis,,3064077,,,,,,,,,,,,,,,,,,Oceania,,Australia,,,,,,,"Roebuck Bay, nr Broome",Western Australia,,,,,,,,
3629808,R,87680,,,1960-07-30,1960-07-30,Squamata,Hydrophiidae,Hydrophis,macdowelli,,3064690,,,,,,,,,,,,,,,,,,Oceania,,Australia,,,,,,,"Normanton, Lower Norman River, Northern Queensland",Queensland,,,,,,,,
3493590,R,92707,,Sherman A. Minton,,,Squamata,Hydrophiidae,Hydrophis,gracilis,,3049039,,,,,,,,,,,,,,,,,,Asia,,Pakistan,,,,,,,"Karachi Dist, Korangi Creek (nr Karachi)",,,,,,,,,
3453395,R,117775,,Francois Vuilleumier,1978-02-07,1978-02-07,Squamata,Hydrophiidae,Laticauda,colubrina,,3043710,,,,,,,,,,,,,,,,,,Oceania,,New Caledonia,,,,,,,"'Tje' islet (or 'Sabot de la Reine'), nr Kuto peninsula, southern Isle of Pines",,,,,,,,,
